{
  "type": "FeatureCollection",
  "features": [
    {
      "type": "Feature",
      "properties": {
        "code": 1,
        "name_fr": "Adrar",
        "name_ar": "أدرار",
        "phone_code": "049",
        "postal_code": "01000"
      },
      "geometry": {
        "type": "Point",
        "coordinates": [
          -0.297222,
          27.87429
        ]
      }
    },
    {
      "type": "Feature",
      "properties": {
        "code": 2,
        "name_fr": "Chlef",
        "name_ar": "الشلف",
        "phone_code": "027",
        "postal_code": "02000"
      },
      "geometry": {
        "type": "Point",
        "coordinates": [
          1.3317,
          36.1647
        ]
      }
    },
    {
      "type": "Feature",
      "properties": {
        "code": 3,
        "name_fr": "Laghouat",
        "name_ar": "الأغواط",
        "phone_code": "029",
        "postal_code": "03000"
      },
      "geometry": {
        "type": "Point",
        "coordinates": [
          2.875,
          33.8
        ]
      }
    },
    {
      "type": "Feature",
      "properties": {
        "code": 4,
        "name_fr": "Oum El Bouaghi",
        "name_ar": "أم البواقي",
        "phone_code": "032",
        "postal_code": "04000"
      },
      "geometry": {
        "type": "Point",
        "coordinates": [
          7.117,
          35.8706
        ]
      }
    },
    {
      "type": "Feature",
      "properties": {
        "code": 5,
        "name_fr": "Batna",
        "name_ar": "باتنة",
        "phone_code": "033",
        "postal_code": "05000"
      },
      "geometry": {
        "type": "Point",
        "coordinates": [
          6.1741447,
          35.55597
        ]
      }
    },
    {
      "type": "Feature",
      "properties": {
        "code": 6,
        "name_fr": "Béjaïa",
        "name_ar": "بجاية",
        "phone_code": "034",
        "postal_code": "06000"
      },
      "geometry": {
        "type": "Point",
        "coordinates": [
          5.0567333,
          36.7508896
        ]
      }
    },
    {
      "type": "Feature",
      "properties": {
        "code": 7,
        "name_fr": "Biskra",
        "name_ar": "بسكرة",
        "phone_code": "033",
        "postal_code": "07000"
      },
      "geometry": {
        "type": "Point",
        "coordinates": [
          5.729074,
          34.850882
        ]
      }
    },
    {
      "type": "Feature",
      "properties": {
        "code": 8,
        "name_fr": "Béchar",
        "name_ar": "بشار",
        "phone_code": "049",
        "postal_code": "08000"
      },
      "geometry": {
        "type": "Point",
        "coordinates": [
          -2.21667,
          31.61667
        ]
      }
    },
    {
      "type": "Feature",
      "properties": {
        "code": 9,
        "name_fr": "Blida",
        "name_ar": "البليدة",
        "phone_code": "025",
        "postal_code": "09000"
      },
      "geometry": {
        "type": "Point",
        "coordinates": [
          2.8319,
          36.47004
        ]
      }
    },
    {
      "type": "Feature",
      "properties": {
        "code": 10,
        "name_fr": "Bouira",
        "name_ar": "البويرة",
        "phone_code": "026",
        "postal_code": "10000"
      },
      "geometry": {
        "type": "Point",
        "coordinates": [
          3.8962348,
          36.37763
        ]
      }
    },
    {
      "type": "Feature",
      "properties": {
        "code": 11,
        "name_fr": "Tamanrasset",
        "name_ar": "تمنراست",
        "phone_code": "029",
        "postal_code": "11000"
      },
      "geometry": {
        "type": "Point",
        "coordinates": [
          5.52278,
          22.7888209
        ]
      }
    },
    {
      "type": "Feature",
      "properties": {
        "code": 12,
        "name_fr": "Tébessa",
        "name_ar": "تبسة",
        "phone_code": "037",
        "postal_code": "12000"
      },
      "geometry": {
        "type": "Point",
        "coordinates": [
          8.12417,
          35.405556
        ]
      }
    },
    {
      "type": "Feature",
      "properties": {
        "code": 13,
        "name_fr": "Tlemcen",
        "name_ar": "تلمسان",
        "phone_code": "043",
        "postal_code": "13000"
      },
      "geometry": {
        "type": "Point",
        "coordinates": [
          -1.316667,
          34.882777
        ]
      }
    },
    {
      "type": "Feature",
      "properties": {
        "code": 14,
        "name_fr": "Tiaret",
        "name_ar": "تيارت",
        "phone_code": "046",
        "postal_code": "14000"
      },
      "geometry": {
        "type": "Point",
        "coordinates": [
          1.3167,
          35.3667
        ]
      }
    },
    {
      "type": "Feature",
      "properties": {
        "code": 15,
        "name_fr": "Tizi Ouzou",
        "name_ar": "تيزي وزو",
        "phone_code": "026",
        "postal_code": "15000"
      },
      "geometry": {
        "type": "Point",
        "coordinates": [
          4.05,
          36.733333
        ]
      }
    },
    {
      "type": "Feature",
      "properties": {
        "code": 16,
        "name_fr": "Alger",
        "name_ar": "الجزائر",
        "phone_code": "021",
        "postal_code": "16000"
      },
      "geometry": {
        "type": "Point",
        "coordinates": [
          3.058211,
          36.776335
        ]
      }
    },
    {
      "type": "Feature",
      "properties": {
        "code": 17,
        "name_fr": "Djelfa",
        "name_ar": "الجلفة",
        "phone_code": "027",
        "postal_code": "17000"
      },
      "geometry": {
        "type": "Point",
        "coordinates": [
          3.25,
          34.67279
        ]
      }
    },
    {
      "type": "Feature",
      "properties": {
        "code": 18,
        "name_fr": "Jijel",
        "name_ar": "جيجل",
        "phone_code": "034",
        "postal_code": "18000"
      },
      "geometry": {
        "type": "Point",
        "coordinates": [
          5.7667,
          36.82055
        ]
      }
    },
    {
      "type": "Feature",
      "properties": {
        "code": 19,
        "name_fr": "Sétif",
        "name_ar": "سطيف",
        "phone_code": "036",
        "postal_code": "19000"
      },
      "geometry": {
        "type": "Point",
        "coordinates": [
          5.4150871,
          36.19112
        ]
      }
    },
    {
      "type": "Feature",
      "properties": {
        "code": 20,
        "name_fr": "Saïda",
        "name_ar": "سعيدة",
        "phone_code": "048",
        "postal_code": "20000"
      },
      "geometry": {
        "type": "Point",
        "coordinates": [
          0.15,
          34.833333
        ]
      }
    },
    {
      "type": "Feature",
      "properties": {
        "code": 21,
        "name_fr": "Skikda",
        "name_ar": "سكيكدة",
        "phone_code": "038",
        "postal_code": "21000"
      },
      "geometry": {
        "type": "Point",
        "coordinates": [
          6.9,
          36.87617
        ]
      }
    },
    {
      "type": "Feature",
      "properties": {
        "code": 22,
        "name_fr": "Sidi Bel Abbès",
        "name_ar": "سيدي بلعباس",
        "phone_code": "048",
        "postal_code": "22000"
      },
      "geometry": {
        "type": "Point",
        "coordinates": [
          -0.6298922,
          35.2022249
        ]
      }
    },
    {
      "type": "Feature",
      "properties": {
        "code": 23,
        "name_fr": "Annaba",
        "name_ar": "عنابة",
        "phone_code": "038",
        "postal_code": "23000"
      },
      "geometry": {
        "type": "Point",
        "coordinates": [
          7.7667,
          36.9
        ]
      }
    },
    {
      "type": "Feature",
      "properties": {
        "code": 24,
        "name_fr": "Guelma",
        "name_ar": "قالمة",
        "phone_code": "037",
        "postal_code": "24000"
      },
      "geometry": {
        "type": "Point",
        "coordinates": [
          7.4206,
          36.466
        ]
      }
    },
    {
      "type": "Feature",
      "properties": {
        "code": 25,
        "name_fr": "Constantine",
        "name_ar": "قسنطينة",
        "phone_code": "031",
        "postal_code": "25000"
      },
      "geometry": {
        "type": "Point",
        "coordinates": [
          6.608428,
          36.364164
        ]
      }
    },
    {
      "type": "Feature",
      "properties": {
        "code": 26,
        "name_fr": "Médéa",
        "name_ar": "المدية",
        "phone_code": "025",
        "postal_code": "26000"
      },
      "geometry": {
        "type": "Point",
        "coordinates": [
          2.75,
          36.2675
        ]
      }
    },
    {
      "type": "Feature",
      "properties": {
        "code": 27,
        "name_fr": "Mostaganem",
        "name_ar": "مستغانم",
        "phone_code": "045",
        "postal_code": "27000"
      },
      "geometry": {
        "type": "Point",
        "coordinates": [
          0.09,
          35.9246589
        ]
      }
    },
    {
      "type": "Feature",
      "properties": {
        "code": 28,
        "name_fr": "M'Sila",
        "name_ar": "المسيلة",
        "phone_code": "035",
        "postal_code": "28000"
      },
      "geometry": {
        "type": "Point",
        "coordinates": [
          4.5472,
          35.71
        ]
      }
    },
    {
      "type": "Feature",
      "properties": {
        "code": 29,
        "name_fr": "Mascara",
        "name_ar": "معسكر",
        "phone_code": "045",
        "postal_code": "29000"
      },
      "geometry": {
        "type": "Point",
        "coordinates": [
          0.133333,
          35.4
        ]
      }
    },
    {
      "type": "Feature",
      "properties": {
        "code": 30,
        "name_fr": "Ouargla",
        "name_ar": "ورقلة",
        "phone_code": "029",
        "postal_code": "30000"
      },
      "geometry": {
        "type": "Point",
        "coordinates": [
          5.3167,
          31.95
        ]
      }
    },
    {
      "type": "Feature",
      "properties": {
        "code": 31,
        "name_fr": "Oran",
        "name_ar": "وهران",
        "phone_code": "041",
        "postal_code": "31000"
      },
      "geometry": {
        "type": "Point",
        "coordinates": [
          -0.6331,
          35.70833333
        ]
      }
    },
    {
      "type": "Feature",
      "properties": {
        "code": 32,
        "name_fr": "El Bayadh",
        "name_ar": "البيض",
        "phone_code": "049",
        "postal_code": "32000"
      },
      "geometry": {
        "type": "Point",
        "coordinates": [
          1.018245,
          33.684319
        ]
      }
    },
    {
      "type": "Feature",
      "properties": {
        "code": 33,
        "name_fr": "Illizi",
        "name_ar": "إليزي",
        "phone_code": "029",
        "postal_code": "33000"
      },
      "geometry": {
        "type": "Point",
        "coordinates": [
          8.483333333,
          26.483333
        ]
      }
    },
    {
      "type": "Feature",
      "properties": {
        "code": 34,
        "name_fr": "Bordj Bou Arreridj",
        "name_ar": "برج بوعريريج",
        "phone_code": "035",
        "postal_code": "34000"
      },
      "geometry": {
        "type": "Point",
        "coordinates": [
          4.766667,
          36.0704188
        ]
      }
    },
    {
      "type": "Feature",
      "properties": {
        "code": 35,
        "name_fr": "Boumerdès",
        "name_ar": "بومرداس",
        "phone_code": "024",
        "postal_code": "35000"
      },
      "geometry": {
        "type": "Point",
        "coordinates": [
          3.477,
          36.766
        ]
      }
    },
    {
      "type": "Feature",
      "properties": {
        "code": 36,
        "name_fr": "El Tarf",
        "name_ar": "الطارف",
        "phone_code": "038",
        "postal_code": "36000"
      },
      "geometry": {
        "type": "Point",
        "coordinates": [
          8.317,
          36.7667186
        ]
      }
    },
    {
      "type": "Feature",
      "properties": {
        "code": 37,
        "name_fr": "Tindouf",
        "name_ar": "تندوف",
        "phone_code": "049",
        "postal_code": "37000"
      },
      "geometry": {
        "type": "Point",
        "coordinates": [
          -8.12724,
          27.670556
        ]
      }
    },
    {
      "type": "Feature",
      "properties": {
        "code": 38,
        "name_fr": "Tissemsilt",
        "name_ar": "تيسمسيلت",
        "phone_code": "046",
        "postal_code": "38000"
      },
      "geometry": {
        "type": "Point",
        "coordinates": [
          1.8108,
          35.60722
        ]
      }
    },
    {
      "type": "Feature",
      "properties": {
        "code": 39,
        "name_fr": "El Oued",
        "name_ar": "الوادي",
        "phone_code": "032",
        "postal_code": "39000"
      },
      "geometry": {
        "type": "Point",
        "coordinates": [
          6.8605556,
          33.36111111
        ]
      }
    },
    {
      "type": "Feature",
      "properties": {
        "code": 40,
        "name_fr": "Khenchela",
        "name_ar": "خنشلة",
        "phone_code": "032",
        "postal_code": "40000"
      },
      "geometry": {
        "type": "Point",
        "coordinates": [
          7.1433,
          35.4358
        ]
      }
    },
    {
      "type": "Feature",
      "properties": {
        "code": 41,
        "name_fr": "Souk Ahras",
        "name_ar": "سوق أهراس",
        "phone_code": "037",
        "postal_code": "41000"
      },
      "geometry": {
        "type": "Point",
        "coordinates": [
          7.950833333,
          36.286389
        ]
      }
    },
    {
      "type": "Feature",
      "properties": {
        "code": 42,
        "name_fr": "Tipaza",
        "name_ar": "تيبازة",
        "phone_code": "024",
        "postal_code": "42000"
      },
      "geometry": {
        "type": "Point",
        "coordinates": [
          2.443,
          36.591944
        ]
      }
    },
    {
      "type": "Feature",
      "properties": {
        "code": 43,
        "name_fr": "Mila",
        "name_ar": "ميلة",
        "phone_code": "031",
        "postal_code": "43000"
      },
      "geometry": {
        "type": "Point",
        "coordinates": [
          6.2644,
          36.4503
        ]
      }
    },
    {
      "type": "Feature",
      "properties": {
        "code": 44,
        "name_fr": "Aïn Defla",
        "name_ar": "عين الدفلى",
        "phone_code": "027",
        "postal_code": "44000"
      },
      "geometry": {
        "type": "Point",
        "coordinates": [
          1.9703,
          36.2652
        ]
      }
    },
    {
      "type": "Feature",
      "properties": {
        "code": 45,
        "name_fr": "Naâma",
        "name_ar": "النعامة",
        "phone_code": "049",
        "postal_code": "45000"
      },
      "geometry": {
        "type": "Point",
        "coordinates": [
          -0.3167,
          33.2667
        ]
      }
    },
    {
      "type": "Feature",
      "properties": {
        "code": 46,
        "name_fr": "Aïn Témouchent",
        "name_ar": "عين تموشنت",
        "phone_code": "043",
        "postal_code": "46000"
      },
      "geometry": {
        "type": "Point",
        "coordinates": [
          -1.133333,
          35.297
        ]
      }
    },
    {
      "type": "Feature",
      "properties": {
        "code": 47,
        "name_fr": "Ghardaïa",
        "name_ar": "غرداية",
        "phone_code": "029",
        "postal_code": "47000"
      },
      "geometry": {
        "type": "Point",
        "coordinates": [
          3.6667,
          32.4833
        ]
      }
    },
    {
      "type": "Feature",
      "properties": {
        "code": 48,
        "name_fr": "Relizane",
        "name_ar": "غليزان",
        "phone_code": "046",
        "postal_code": "48000"
      },
      "geometry": {
        "type": "Point",
        "coordinates": [
          0.5588787,
          35.7333
        ]
      }
    },
    {
      "type": "Feature",
      "properties": {
        "code": 49,
        "name_fr": "Timimoun",
        "name_ar": "تيميمون",
        "phone_code": "049",
        "postal_code": "49000"
      },
      "geometry": {
        "type": "Point",
        "coordinates": [
          0.2285923,
          29.25
        ]
      }
    },
    {
      "type": "Feature",
      "properties": {
        "code": 50,
        "name_fr": "Bordj Badji Mokhtar",
        "name_ar": "برج باجي مختار",
        "phone_code": "049",
        "postal_code": "50000"
      },
      "geometry": {
        "type": "Point",
        "coordinates": [
          0.954167,
          21.3292442
        ]
      }
    },
    {
      "type": "Feature",
      "properties": {
        "code": 51,
        "name_fr": "Ouled Djellal",
        "name_ar": "أولاد جلال",
        "phone_code": "033",
        "postal_code": "51000"
      },
      "geometry": {
        "type": "Point",
        "coordinates": [
          5.0644342,
          34.4254103
        ]
      }
    },
    {
      "type": "Feature",
      "properties": {
        "code": 52,
        "name_fr": "Béni Abbès",
        "name_ar": "بني عباس",
        "phone_code": "049",
        "postal_code": "52000"
      },
      "geometry": {
        "type": "Point",
        "coordinates": [
          -2.169031,
          30.131743
        ]
      }
    },
    {
      "type": "Feature",
      "properties": {
        "code": 53,
        "name_fr": "In Salah",
        "name_ar": "عين صالح",
        "phone_code": "029",
        "postal_code": "53000"
      },
      "geometry": {
        "type": "Point",
        "coordinates": [
          2.483333,
          27.1935
        ]
      }
    },
    {
      "type": "Feature",
      "properties": {
        "code": 54,
        "name_fr": "In Guezzam",
        "name_ar": "عين قزام",
        "phone_code": "029",
        "postal_code": "54000"
      },
      "geometry": {
        "type": "Point",
        "coordinates": [
          5.76806,
          19.5696707
        ]
      }
    },
    {
      "type": "Feature",
      "properties": {
        "code": 55,
        "name_fr": "Touggourt",
        "name_ar": "توقرت",
        "phone_code": "029",
        "postal_code": "55000"
      },
      "geometry": {
        "type": "Point",
        "coordinates": [
          6.05796,
          33.1
        ]
      }
    },
    {
      "type": "Feature",
      "properties": {
        "code": 56,
        "name_fr": "Djanet",
        "name_ar": "جانت",
        "phone_code": "029",
        "postal_code": "56000"
      },
      "geometry": {
        "type": "Point",
        "coordinates": [
          9.4841939,
          24.55270656
        ]
      }
    },
    {
      "type": "Feature",
      "properties": {
        "code": 57,
        "name_fr": "El M'Ghair",
        "name_ar": "المغير",
        "phone_code": "032",
        "postal_code": "57000"
      },
      "geometry": {
        "type": "Point",
        "coordinates": [
          5.9242,
          33.953
        ]
      }
    },
    {
      "type": "Feature",
      "properties": {
        "code": 58,
        "name_fr": "El Meniaa",
        "name_ar": "المنيعة",
        "phone_code": "029",
        "postal_code": "58000"
      },
      "geometry": {
        "type": "Point",
        "coordinates": [
          2.885833333,
          30.57556
        ]
      }
    },
    {
      "type": "Feature",
      "properties": {
        "code": 59,
        "name_fr": "Aflou",
        "name_ar": "آفلو",
        "phone_code": null,
        "postal_code": "59000"
      },
      "geometry": {
        "type": "Point",
        "coordinates": [
          2.1019,
          34.11279
        ]
      }
    },
    {
      "type": "Feature",
      "properties": {
        "code": 60,
        "name_fr": "Barika",
        "name_ar": "بريكة",
        "phone_code": null,
        "postal_code": "60000"
      },
      "geometry": {
        "type": "Point",
        "coordinates": [
          5.3658,
          35.3972
        ]
      }
    },
    {
      "type": "Feature",
      "properties": {
        "code": 61,
        "name_fr": "El Kantara",
        "name_ar": "القنطرة",
        "phone_code": null,
        "postal_code": "61000"
      },
      "geometry": {
        "type": "Point",
        "coordinates": [
          5.709284,
          35.223115
        ]
      }
    },
    {
      "type": "Feature",
      "properties": {
        "code": 62,
        "name_fr": "Bir El Ater",
        "name_ar": "بئر العاتر",
        "phone_code": null,
        "postal_code": "62000"
      },
      "geometry": {
        "type": "Point",
        "coordinates": [
          8.06,
          34.74488
        ]
      }
    },
    {
      "type": "Feature",
      "properties": {
        "code": 63,
        "name_fr": "El Aricha",
        "name_ar": "العريشة",
        "phone_code": null,
        "postal_code": "63000"
      },
      "geometry": {
        "type": "Point",
        "coordinates": [
          -1.257,
          34.22259
        ]
      }
    },
    {
      "type": "Feature",
      "properties": {
        "code": 64,
        "name_fr": "Ksar Chellala",
        "name_ar": "قصر الشلالة",
        "phone_code": null,
        "postal_code": "64000"
      },
      "geometry": {
        "type": "Point",
        "coordinates": [
          2.3189,
          35.21222
        ]
      }
    },
    {
      "type": "Feature",
      "properties": {
        "code": 65,
        "name_fr": "Aïn Ouessara",
        "name_ar": "عين وسارة",
        "phone_code": null,
        "postal_code": "65000"
      },
      "geometry": {
        "type": "Point",
        "coordinates": [
          2.904444,
          35.4542653
        ]
      }
    },
    {
      "type": "Feature",
      "properties": {
        "code": 66,
        "name_fr": "Messaad",
        "name_ar": "مسعد",
        "phone_code": null,
        "postal_code": "66000"
      },
      "geometry": {
        "type": "Point",
        "coordinates": [
          3.50309,
          34.15429
        ]
      }
    },
    {
      "type": "Feature",
      "properties": {
        "code": 67,
        "name_fr": "Ksar El Boukhari",
        "name_ar": "قصر البخاري",
        "phone_code": null,
        "postal_code": "67000"
      },
      "geometry": {
        "type": "Point",
        "coordinates": [
          2.74905,
          35.88889
        ]
      }
    },
    {
      "type": "Feature",
      "properties": {
        "code": 68,
        "name_fr": "Bou Saâda",
        "name_ar": "بوسعادة",
        "phone_code": null,
        "postal_code": "68000"
      },
      "geometry": {
        "type": "Point",
        "coordinates": [
          4.17402,
          35.219167
        ]
      }
    },
    {
      "type": "Feature",
      "properties": {
        "code": 69,
        "name_fr": "El Abiodh Sidi Cheikh",
        "name_ar": "الأبيض سيدي الشيخ",
        "phone_code": null,
        "postal_code": "69000"
      },
      "geometry": {
        "type": "Point",
        "coordinates": [
          0.544444,
          32.898611
        ]
      }
    }
  ]
}
