{
  "type": "FeatureCollection",
  "features": [
    {
      "type": "Feature",
      "geometry": {
        "type": "Point",
        "coordinates": [
          -0.297222,
          27.87429
        ]
      },
      "properties": {
        "name": "Adrar — أدرار",
        "code": 1,
        "postal_code": "01000"
      }
    },
    {
      "type": "Feature",
      "geometry": {
        "type": "Point",
        "coordinates": [
          1.3317,
          36.1647
        ]
      },
      "properties": {
        "name": "Chlef — الشلف",
        "code": 2,
        "postal_code": "02000"
      }
    },
    {
      "type": "Feature",
      "geometry": {
        "type": "Point",
        "coordinates": [
          2.875,
          33.8
        ]
      },
      "properties": {
        "name": "Laghouat — الأغواط",
        "code": 3,
        "postal_code": "03000"
      }
    },
    {
      "type": "Feature",
      "geometry": {
        "type": "Point",
        "coordinates": [
          7.117,
          35.8706
        ]
      },
      "properties": {
        "name": "Oum El Bouaghi — أم البواقي",
        "code": 4,
        "postal_code": "04000"
      }
    },
    {
      "type": "Feature",
      "geometry": {
        "type": "Point",
        "coordinates": [
          6.1741447,
          35.55597
        ]
      },
      "properties": {
        "name": "Batna — باتنة",
        "code": 5,
        "postal_code": "05000"
      }
    },
    {
      "type": "Feature",
      "geometry": {
        "type": "Point",
        "coordinates": [
          5.0567333,
          36.7508896
        ]
      },
      "properties": {
        "name": "Béjaïa — بجاية",
        "code": 6,
        "postal_code": "06000"
      }
    },
    {
      "type": "Feature",
      "geometry": {
        "type": "Point",
        "coordinates": [
          5.729074,
          34.850882
        ]
      },
      "properties": {
        "name": "Biskra — بسكرة",
        "code": 7,
        "postal_code": "07000"
      }
    },
    {
      "type": "Feature",
      "geometry": {
        "type": "Point",
        "coordinates": [
          -2.21667,
          31.61667
        ]
      },
      "properties": {
        "name": "Béchar — بشار",
        "code": 8,
        "postal_code": "08000"
      }
    },
    {
      "type": "Feature",
      "geometry": {
        "type": "Point",
        "coordinates": [
          2.8319,
          36.47004
        ]
      },
      "properties": {
        "name": "Blida — البليدة",
        "code": 9,
        "postal_code": "09000"
      }
    },
    {
      "type": "Feature",
      "geometry": {
        "type": "Point",
        "coordinates": [
          3.8962348,
          36.37763
        ]
      },
      "properties": {
        "name": "Bouira — البويرة",
        "code": 10,
        "postal_code": "10000"
      }
    },
    {
      "type": "Feature",
      "geometry": {
        "type": "Point",
        "coordinates": [
          5.52278,
          22.7888209
        ]
      },
      "properties": {
        "name": "Tamanrasset — تمنراست",
        "code": 11,
        "postal_code": "11000"
      }
    },
    {
      "type": "Feature",
      "geometry": {
        "type": "Point",
        "coordinates": [
          8.12417,
          35.405556
        ]
      },
      "properties": {
        "name": "Tébessa — تبسة",
        "code": 12,
        "postal_code": "12000"
      }
    },
    {
      "type": "Feature",
      "geometry": {
        "type": "Point",
        "coordinates": [
          -1.316667,
          34.882777
        ]
      },
      "properties": {
        "name": "Tlemcen — تلمسان",
        "code": 13,
        "postal_code": "13000"
      }
    },
    {
      "type": "Feature",
      "geometry": {
        "type": "Point",
        "coordinates": [
          1.3167,
          35.3667
        ]
      },
      "properties": {
        "name": "Tiaret — تيارت",
        "code": 14,
        "postal_code": "14000"
      }
    },
    {
      "type": "Feature",
      "geometry": {
        "type": "Point",
        "coordinates": [
          4.05,
          36.733333
        ]
      },
      "properties": {
        "name": "Tizi Ouzou — تيزي وزو",
        "code": 15,
        "postal_code": "15000"
      }
    },
    {
      "type": "Feature",
      "geometry": {
        "type": "Point",
        "coordinates": [
          3.058211,
          36.776335
        ]
      },
      "properties": {
        "name": "Alger — الجزائر",
        "code": 16,
        "postal_code": "16000"
      }
    },
    {
      "type": "Feature",
      "geometry": {
        "type": "Point",
        "coordinates": [
          3.25,
          34.67279
        ]
      },
      "properties": {
        "name": "Djelfa — الجلفة",
        "code": 17,
        "postal_code": "17000"
      }
    },
    {
      "type": "Feature",
      "geometry": {
        "type": "Point",
        "coordinates": [
          5.7667,
          36.82055
        ]
      },
      "properties": {
        "name": "Jijel — جيجل",
        "code": 18,
        "postal_code": "18000"
      }
    },
    {
      "type": "Feature",
      "geometry": {
        "type": "Point",
        "coordinates": [
          5.4150871,
          36.19112
        ]
      },
      "properties": {
        "name": "Sétif — سطيف",
        "code": 19,
        "postal_code": "19000"
      }
    },
    {
      "type": "Feature",
      "geometry": {
        "type": "Point",
        "coordinates": [
          0.15,
          34.833333
        ]
      },
      "properties": {
        "name": "Saïda — سعيدة",
        "code": 20,
        "postal_code": "20000"
      }
    },
    {
      "type": "Feature",
      "geometry": {
        "type": "Point",
        "coordinates": [
          6.9,
          36.87617
        ]
      },
      "properties": {
        "name": "Skikda — سكيكدة",
        "code": 21,
        "postal_code": "21000"
      }
    },
    {
      "type": "Feature",
      "geometry": {
        "type": "Point",
        "coordinates": [
          -0.6298922,
          35.2022249
        ]
      },
      "properties": {
        "name": "Sidi Bel Abbès — سيدي بلعباس",
        "code": 22,
        "postal_code": "22000"
      }
    },
    {
      "type": "Feature",
      "geometry": {
        "type": "Point",
        "coordinates": [
          7.7667,
          36.9
        ]
      },
      "properties": {
        "name": "Annaba — عنابة",
        "code": 23,
        "postal_code": "23000"
      }
    },
    {
      "type": "Feature",
      "geometry": {
        "type": "Point",
        "coordinates": [
          7.4206,
          36.466
        ]
      },
      "properties": {
        "name": "Guelma — قالمة",
        "code": 24,
        "postal_code": "24000"
      }
    },
    {
      "type": "Feature",
      "geometry": {
        "type": "Point",
        "coordinates": [
          6.608428,
          36.364164
        ]
      },
      "properties": {
        "name": "Constantine — قسنطينة",
        "code": 25,
        "postal_code": "25000"
      }
    },
    {
      "type": "Feature",
      "geometry": {
        "type": "Point",
        "coordinates": [
          2.75,
          36.2675
        ]
      },
      "properties": {
        "name": "Médéa — المدية",
        "code": 26,
        "postal_code": "26000"
      }
    },
    {
      "type": "Feature",
      "geometry": {
        "type": "Point",
        "coordinates": [
          0.09,
          35.9246589
        ]
      },
      "properties": {
        "name": "Mostaganem — مستغانم",
        "code": 27,
        "postal_code": "27000"
      }
    },
    {
      "type": "Feature",
      "geometry": {
        "type": "Point",
        "coordinates": [
          4.5472,
          35.71
        ]
      },
      "properties": {
        "name": "M'Sila — المسيلة",
        "code": 28,
        "postal_code": "28000"
      }
    },
    {
      "type": "Feature",
      "geometry": {
        "type": "Point",
        "coordinates": [
          0.133333,
          35.4
        ]
      },
      "properties": {
        "name": "Mascara — معسكر",
        "code": 29,
        "postal_code": "29000"
      }
    },
    {
      "type": "Feature",
      "geometry": {
        "type": "Point",
        "coordinates": [
          5.3167,
          31.95
        ]
      },
      "properties": {
        "name": "Ouargla — ورقلة",
        "code": 30,
        "postal_code": "30000"
      }
    },
    {
      "type": "Feature",
      "geometry": {
        "type": "Point",
        "coordinates": [
          -0.6331,
          35.70833333
        ]
      },
      "properties": {
        "name": "Oran — وهران",
        "code": 31,
        "postal_code": "31000"
      }
    },
    {
      "type": "Feature",
      "geometry": {
        "type": "Point",
        "coordinates": [
          1.018245,
          33.684319
        ]
      },
      "properties": {
        "name": "El Bayadh — البيض",
        "code": 32,
        "postal_code": "32000"
      }
    },
    {
      "type": "Feature",
      "geometry": {
        "type": "Point",
        "coordinates": [
          8.483333333,
          26.483333
        ]
      },
      "properties": {
        "name": "Illizi — إليزي",
        "code": 33,
        "postal_code": "33000"
      }
    },
    {
      "type": "Feature",
      "geometry": {
        "type": "Point",
        "coordinates": [
          4.766667,
          36.0704188
        ]
      },
      "properties": {
        "name": "Bordj Bou Arreridj — برج بوعريريج",
        "code": 34,
        "postal_code": "34000"
      }
    },
    {
      "type": "Feature",
      "geometry": {
        "type": "Point",
        "coordinates": [
          3.477,
          36.766
        ]
      },
      "properties": {
        "name": "Boumerdès — بومرداس",
        "code": 35,
        "postal_code": "35000"
      }
    },
    {
      "type": "Feature",
      "geometry": {
        "type": "Point",
        "coordinates": [
          8.317,
          36.7667186
        ]
      },
      "properties": {
        "name": "El Tarf — الطارف",
        "code": 36,
        "postal_code": "36000"
      }
    },
    {
      "type": "Feature",
      "geometry": {
        "type": "Point",
        "coordinates": [
          -8.12724,
          27.670556
        ]
      },
      "properties": {
        "name": "Tindouf — تندوف",
        "code": 37,
        "postal_code": "37000"
      }
    },
    {
      "type": "Feature",
      "geometry": {
        "type": "Point",
        "coordinates": [
          1.8108,
          35.60722
        ]
      },
      "properties": {
        "name": "Tissemsilt — تيسمسيلت",
        "code": 38,
        "postal_code": "38000"
      }
    },
    {
      "type": "Feature",
      "geometry": {
        "type": "Point",
        "coordinates": [
          6.8605556,
          33.36111111
        ]
      },
      "properties": {
        "name": "El Oued — الوادي",
        "code": 39,
        "postal_code": "39000"
      }
    },
    {
      "type": "Feature",
      "geometry": {
        "type": "Point",
        "coordinates": [
          7.1433,
          35.4358
        ]
      },
      "properties": {
        "name": "Khenchela — خنشلة",
        "code": 40,
        "postal_code": "40000"
      }
    },
    {
      "type": "Feature",
      "geometry": {
        "type": "Point",
        "coordinates": [
          7.950833333,
          36.286389
        ]
      },
      "properties": {
        "name": "Souk Ahras — سوق أهراس",
        "code": 41,
        "postal_code": "41000"
      }
    },
    {
      "type": "Feature",
      "geometry": {
        "type": "Point",
        "coordinates": [
          2.443,
          36.591944
        ]
      },
      "properties": {
        "name": "Tipaza — تيبازة",
        "code": 42,
        "postal_code": "42000"
      }
    },
    {
      "type": "Feature",
      "geometry": {
        "type": "Point",
        "coordinates": [
          6.2644,
          36.4503
        ]
      },
      "properties": {
        "name": "Mila — ميلة",
        "code": 43,
        "postal_code": "43000"
      }
    },
    {
      "type": "Feature",
      "geometry": {
        "type": "Point",
        "coordinates": [
          1.9703,
          36.2652
        ]
      },
      "properties": {
        "name": "Aïn Defla — عين الدفلى",
        "code": 44,
        "postal_code": "44000"
      }
    },
    {
      "type": "Feature",
      "geometry": {
        "type": "Point",
        "coordinates": [
          -0.3167,
          33.2667
        ]
      },
      "properties": {
        "name": "Naâma — النعامة",
        "code": 45,
        "postal_code": "45000"
      }
    },
    {
      "type": "Feature",
      "geometry": {
        "type": "Point",
        "coordinates": [
          -1.133333,
          35.297
        ]
      },
      "properties": {
        "name": "Aïn Témouchent — عين تموشنت",
        "code": 46,
        "postal_code": "46000"
      }
    },
    {
      "type": "Feature",
      "geometry": {
        "type": "Point",
        "coordinates": [
          3.6667,
          32.4833
        ]
      },
      "properties": {
        "name": "Ghardaïa — غرداية",
        "code": 47,
        "postal_code": "47000"
      }
    },
    {
      "type": "Feature",
      "geometry": {
        "type": "Point",
        "coordinates": [
          0.5588787,
          35.7333
        ]
      },
      "properties": {
        "name": "Relizane — غليزان",
        "code": 48,
        "postal_code": "48000"
      }
    },
    {
      "type": "Feature",
      "geometry": {
        "type": "Point",
        "coordinates": [
          0.2285923,
          29.25
        ]
      },
      "properties": {
        "name": "Timimoun — تيميمون",
        "code": 49,
        "postal_code": "49000"
      }
    },
    {
      "type": "Feature",
      "geometry": {
        "type": "Point",
        "coordinates": [
          0.954167,
          21.3292442
        ]
      },
      "properties": {
        "name": "Bordj Badji Mokhtar — برج باجي مختار",
        "code": 50,
        "postal_code": "50000"
      }
    },
    {
      "type": "Feature",
      "geometry": {
        "type": "Point",
        "coordinates": [
          5.0644342,
          34.4254103
        ]
      },
      "properties": {
        "name": "Ouled Djellal — أولاد جلال",
        "code": 51,
        "postal_code": "51000"
      }
    },
    {
      "type": "Feature",
      "geometry": {
        "type": "Point",
        "coordinates": [
          -2.169031,
          30.131743
        ]
      },
      "properties": {
        "name": "Béni Abbès — بني عباس",
        "code": 52,
        "postal_code": "52000"
      }
    },
    {
      "type": "Feature",
      "geometry": {
        "type": "Point",
        "coordinates": [
          2.483333,
          27.1935
        ]
      },
      "properties": {
        "name": "In Salah — عين صالح",
        "code": 53,
        "postal_code": "53000"
      }
    },
    {
      "type": "Feature",
      "geometry": {
        "type": "Point",
        "coordinates": [
          5.76806,
          19.5696707
        ]
      },
      "properties": {
        "name": "In Guezzam — عين قزام",
        "code": 54,
        "postal_code": "54000"
      }
    },
    {
      "type": "Feature",
      "geometry": {
        "type": "Point",
        "coordinates": [
          6.05796,
          33.1
        ]
      },
      "properties": {
        "name": "Touggourt — توقرت",
        "code": 55,
        "postal_code": "55000"
      }
    },
    {
      "type": "Feature",
      "geometry": {
        "type": "Point",
        "coordinates": [
          9.4841939,
          24.55270656
        ]
      },
      "properties": {
        "name": "Djanet — جانت",
        "code": 56,
        "postal_code": "56000"
      }
    },
    {
      "type": "Feature",
      "geometry": {
        "type": "Point",
        "coordinates": [
          5.9242,
          33.953
        ]
      },
      "properties": {
        "name": "El M'Ghair — المغير",
        "code": 57,
        "postal_code": "57000"
      }
    },
    {
      "type": "Feature",
      "geometry": {
        "type": "Point",
        "coordinates": [
          2.885833333,
          30.57556
        ]
      },
      "properties": {
        "name": "El Meniaa — المنيعة",
        "code": 58,
        "postal_code": "58000"
      }
    },
    {
      "type": "Feature",
      "geometry": {
        "type": "Point",
        "coordinates": [
          2.1019,
          34.11279
        ]
      },
      "properties": {
        "name": "Aflou — آفلو",
        "code": 59,
        "postal_code": "59000"
      }
    },
    {
      "type": "Feature",
      "geometry": {
        "type": "Point",
        "coordinates": [
          5.3658,
          35.3972
        ]
      },
      "properties": {
        "name": "Barika — بريكة",
        "code": 60,
        "postal_code": "60000"
      }
    },
    {
      "type": "Feature",
      "geometry": {
        "type": "Point",
        "coordinates": [
          5.709284,
          35.223115
        ]
      },
      "properties": {
        "name": "El Kantara — القنطرة",
        "code": 61,
        "postal_code": "61000"
      }
    },
    {
      "type": "Feature",
      "geometry": {
        "type": "Point",
        "coordinates": [
          8.06,
          34.74488
        ]
      },
      "properties": {
        "name": "Bir El Ater — بئر العاتر",
        "code": 62,
        "postal_code": "62000"
      }
    },
    {
      "type": "Feature",
      "geometry": {
        "type": "Point",
        "coordinates": [
          -1.257,
          34.22259
        ]
      },
      "properties": {
        "name": "El Aricha — العريشة",
        "code": 63,
        "postal_code": "63000"
      }
    },
    {
      "type": "Feature",
      "geometry": {
        "type": "Point",
        "coordinates": [
          2.3189,
          35.21222
        ]
      },
      "properties": {
        "name": "Ksar Chellala — قصر الشلالة",
        "code": 64,
        "postal_code": "64000"
      }
    },
    {
      "type": "Feature",
      "geometry": {
        "type": "Point",
        "coordinates": [
          2.904444,
          35.4542653
        ]
      },
      "properties": {
        "name": "Aïn Ouessara — عين وسارة",
        "code": 65,
        "postal_code": "65000"
      }
    },
    {
      "type": "Feature",
      "geometry": {
        "type": "Point",
        "coordinates": [
          3.50309,
          34.15429
        ]
      },
      "properties": {
        "name": "Messaad — مسعد",
        "code": 66,
        "postal_code": "66000"
      }
    },
    {
      "type": "Feature",
      "geometry": {
        "type": "Point",
        "coordinates": [
          2.74905,
          35.88889
        ]
      },
      "properties": {
        "name": "Ksar El Boukhari — قصر البخاري",
        "code": 67,
        "postal_code": "67000"
      }
    },
    {
      "type": "Feature",
      "geometry": {
        "type": "Point",
        "coordinates": [
          4.17402,
          35.219167
        ]
      },
      "properties": {
        "name": "Bou Saâda — بوسعادة",
        "code": 68,
        "postal_code": "68000"
      }
    },
    {
      "type": "Feature",
      "geometry": {
        "type": "Point",
        "coordinates": [
          0.544444,
          32.898611
        ]
      },
      "properties": {
        "name": "El Abiodh Sidi Cheikh — الأبيض سيدي الشيخ",
        "code": 69,
        "postal_code": "69000"
      }
    }
  ]
}
