<?xml version="1.0" encoding="UTF-8"?>
<kml xmlns="http://www.opengis.net/kml/2.2"><Document><name>Adresses BDL.xlsx</name>
  <Placemark>
    <name>126</name>
    <ExtendedData><Data name="AGENCE"><value>HASSI MESSAOUD</value></Data><Data name="ADRESSE"><value>CITE 134 LGTS BP 606 HASSI MESSAOUD</value></Data><Data name="VILLE"><value>HASSI MESSAOUD</value></Data><Data name="WILAYA"><value>OUARGLA                  </value></Data></ExtendedData>
    <Point><coordinates>5.3937651,30.4114161,0</coordinates></Point>
  </Placemark>
  <Placemark>
    <name>129</name>
    <ExtendedData><Data name="AGENCE"><value>TAMANRASSET</value></Data><Data name="ADRESSE"><value>CENTRE DE VILLE BP 104 TAMANRASSET </value></Data><Data name="VILLE"><value>TAMANRASSET</value></Data><Data name="WILAYA"><value>TAMANRASSET</value></Data></ExtendedData>
    <Point><coordinates>5.5258268,22.7888555,0</coordinates></Point>
  </Placemark>
  <Placemark>
    <name>198</name>
    <ExtendedData><Data name="AGENCE"><value>ILLIZI                                                           </value></Data><Data name="ADRESSE"><value>RUE MUSTAPHA BENBOULAID ILLIZI</value></Data><Data name="VILLE"><value>ILLIZI</value></Data><Data name="WILAYA"><value>ILLIZI                   </value></Data></ExtendedData>
    <Point><coordinates>8.473271799999997,26.5094346,0</coordinates></Point>
  </Placemark>
  <Placemark>
    <name>306</name>
    <ExtendedData><Data name="AGENCE"><value>TOUGGOURT                                                        </value></Data><Data name="ADRESSE"><value>7, RUE LARBI BEN M'HIDI TOUGGOURT</value></Data><Data name="VILLE"><value>TOUGGOURT</value></Data><Data name="WILAYA"><value>OUARGLA                  </value></Data></ExtendedData>
    <Point><coordinates>6.0785104,33.0996078,0</coordinates></Point>
  </Placemark>
  <Placemark>
    <name>367</name>
    <ExtendedData><Data name="AGENCE"><value>EL OUED                                                          </value></Data><Data name="ADRESSE"><value>CITÉ 400 LOGEMENTS EL OUED             </value></Data><Data name="VILLE"><value>EL OUED</value></Data><Data name="WILAYA"><value>EL OUED                  </value></Data></ExtendedData>
    <Point><coordinates>6.8502803,33.3691535,0</coordinates></Point>
  </Placemark>
  <Placemark>
    <name>830</name>
    <ExtendedData><Data name="AGENCE"><value>DRE OUARGLA</value></Data><Data name="ADRESSE"><value>RUE EMIR ABDELKADER OUARGLA </value></Data><Data name="VILLE"><value>OUARGLA</value></Data><Data name="WILAYA"><value>OUARGLA                  </value></Data></ExtendedData>
    <Point><coordinates>5.3274589,31.959246900000004,0</coordinates></Point>
  </Placemark>
  <Placemark>
    <name>105</name>
    <ExtendedData><Data name="AGENCE"><value>El MOURADIA                                                      </value></Data><Data name="ADRESSE"><value>03 CHEMIN MOHAMED GASEM EL MOURADIA ALGER        </value></Data><Data name="VILLE"><value>EL MOURADIA                     </value></Data><Data name="WILAYA"><value>ALGER                    </value></Data></ExtendedData>
    <Point><coordinates>3.0488564000000005,36.7497677,0</coordinates></Point>
  </Placemark>
  <Placemark>
    <name>106</name>
    <ExtendedData><Data name="AGENCE"><value>El-BIAR                                                          </value></Data><Data name="ADRESSE"><value>04,RUE KACI AIT HAMOUDA EL BIAR        </value></Data><Data name="VILLE"><value>EL BIAR</value></Data><Data name="WILAYA"><value>ALGER                    </value></Data></ExtendedData>
    <Point><coordinates>3.0309945999999997,36.7690092,0</coordinates></Point>
  </Placemark>
  <Placemark>
    <name>107</name>
    <ExtendedData><Data name="AGENCE"><value>PORT SAÏD                                                        </value></Data><Data name="ADRESSE"><value>01 BIS, RUE ALI BOUMENDJEL PORT SAID ALGER     </value></Data><Data name="VILLE"><value>PORT SAID                       </value></Data><Data name="WILAYA"><value>ALGER                    </value></Data></ExtendedData>
    <Point><coordinates>3.0596274,36.7800979,0</coordinates></Point>
  </Placemark>
  <Placemark>
    <name>109</name>
    <ExtendedData><Data name="AGENCE"><value>BAB EL OUED                                                      </value></Data><Data name="ADRESSE"><value>20, RUE AHMED BOUBELLA BAB EL OUED ALGER         </value></Data><Data name="VILLE"><value>BAB EL OUED</value></Data><Data name="WILAYA"><value>ALGER                    </value></Data></ExtendedData>
    <Point><coordinates>3.0513600999999997,36.7927594,0</coordinates></Point>
  </Placemark>
  <Placemark>
    <name>111</name>
    <ExtendedData><Data name="AGENCE"><value>BIR MOURAD RAIS                                                  </value></Data><Data name="ADRESSE"><value>38, RUE DES FRÈRES BOUADOU BIR MOURAD RAIS ALGER     </value></Data><Data name="VILLE"><value>BIR MOURAD RAIS                                                  </value></Data><Data name="WILAYA"><value>ALGER                    </value></Data></ExtendedData>
    <Point><coordinates>3.0503736999999997,36.735349299999996,0</coordinates></Point>
  </Placemark>
  <Placemark>
    <name>150</name>
    <ExtendedData><Data name="AGENCE"><value>DIDOUCHE &quot;D&quot;                                                     </value></Data><Data name="ADRESSE"><value>24 RUE DES FRÈRES MESLEM ALGER   </value></Data><Data name="VILLE"><value>DIDOUCHE MOURAD                 </value></Data><Data name="WILAYA"><value>ALGER                    </value></Data></ExtendedData>
    <Point><coordinates>3.0547953,36.76927899999999,0</coordinates></Point>
  </Placemark>
  <Placemark>
    <name>170</name>
    <ExtendedData><Data name="AGENCE"><value>EMIR ABDELKADER                                                  </value></Data><Data name="ADRESSE"><value>03, PLACE EMIR ABDELKADER ALGER      </value></Data><Data name="VILLE"><value>ALGER</value></Data><Data name="WILAYA"><value>ALGER                    </value></Data></ExtendedData>
    <Point><coordinates>3.0580662,36.7764054,0</coordinates></Point>
  </Placemark>
  <Placemark>
    <name>173</name>
    <ExtendedData><Data name="AGENCE"><value>BELOUIZDED                                                       </value></Data><Data name="ADRESSE"><value>CENTRE COMMERCIAL DU STADE BELOUIZDED     </value></Data><Data name="VILLE"><value>BELOUIZDED          </value></Data><Data name="WILAYA"><value>ALGER                    </value></Data></ExtendedData>
    <Point><coordinates>3.0701420000000006,36.750568200000004,0</coordinates></Point>
  </Placemark>
  <Placemark>
    <name>831</name>
    <ExtendedData><Data name="AGENCE"><value>DRE ALGER CENTRE</value></Data><Data name="ADRESSE"><value>01 BIS, RUE ALI BOUMENDJEL PORT SAID ALGER     </value></Data><Data name="VILLE"><value>PORT SAID                       </value></Data><Data name="WILAYA"><value>ALGER                    </value></Data></ExtendedData>
    <Point><coordinates>2.8856942,36.75340179999999,0</coordinates></Point>
  </Placemark>
  <Placemark>
    <name>104</name>
    <ExtendedData><Data name="AGENCE"><value>HUSSEIN DAY                                                      </value></Data><Data name="ADRESSE"><value>03, RUE LAYACHI YAHIA HUSSEIN DEY          </value></Data><Data name="VILLE"><value>HUSSEIN DEY   </value></Data><Data name="WILAYA"><value>ALGER                    </value></Data></ExtendedData>
    <Point><coordinates>3.1102345,36.744147,0</coordinates></Point>
  </Placemark>
  <Placemark>
    <name>110</name>
    <ExtendedData><Data name="AGENCE"><value>Mohammadia (pins maritimes)</value></Data><Data name="ADRESSE"><value>PALAIS DES EXPOSITION MOHAMMADIA ALGER</value></Data><Data name="VILLE"><value>MOHAMMADIA</value></Data><Data name="WILAYA"><value>ALGER                    </value></Data></ExtendedData>
    <Point><coordinates>3.1571563,36.7295732,0</coordinates></Point>
  </Placemark>
  <Placemark>
    <name>115</name>
    <ExtendedData><Data name="AGENCE"><value>OULED FAYET                                                      </value></Data><Data name="ADRESSE"><value>114, LOTISSEMENT 02 OULED FAYET ALGER</value></Data><Data name="VILLE"><value>OULED FAYET</value></Data><Data name="WILAYA"><value>ALGER                    </value></Data></ExtendedData>
    <Point><coordinates>2.9425697999999993,36.7295502,0</coordinates></Point>
  </Placemark>
  <Placemark>
    <name>117</name>
    <ExtendedData><Data name="AGENCE"><value>STAOUELI 2                                                       </value></Data><Data name="ADRESSE"><value>VILLA CHEZZA, ROUTE NATIONALE N 11 STAOUELI </value></Data><Data name="VILLE"><value>STAOUÉLI                  </value></Data><Data name="WILAYA"><value>ALGER                    </value></Data></ExtendedData>
    <Point><coordinates>2.8809492999999993,36.749549699999996,0</coordinates></Point>
  </Placemark>
  <Placemark>
    <name>119</name>
    <ExtendedData><Data name="AGENCE"><value>KOLEA                                                            </value></Data><Data name="ADRESSE"><value>RUE DES FRERES EL HACHMI KOLEA  </value></Data><Data name="VILLE"><value>KOLEA</value></Data><Data name="WILAYA"><value>TIPAZA                   </value></Data></ExtendedData>
    <Point><coordinates>2.7711168,36.6400268,0</coordinates></Point>
  </Placemark>
  <Placemark>
    <name>156</name>
    <ExtendedData><Data name="AGENCE"><value>EL HARRACH                                                       </value></Data><Data name="ADRESSE"><value>02, RUE DE LA CHARTE EL HARRACH     </value></Data><Data name="VILLE"><value>EL HARRACH           </value></Data><Data name="WILAYA"><value>ALGER                    </value></Data></ExtendedData>
    <Point><coordinates>3.1428340999999995,36.70290469999999,0</coordinates></Point>
  </Placemark>
  <Placemark>
    <name>157</name>
    <ExtendedData><Data name="AGENCE"><value>ZERALDA                                                          </value></Data><Data name="ADRESSE"><value>RUE BENFADDAH AISSA, ZÉRALDA    </value></Data><Data name="VILLE"><value>ZERALDA                                                          </value></Data><Data name="WILAYA"><value>ALGER                    </value></Data></ExtendedData>
    <Point><coordinates>2.8277963,36.6946148,0</coordinates></Point>
  </Placemark>
  <Placemark>
    <name>158</name>
    <ExtendedData><Data name="AGENCE"><value>STAOUELI 1                                                       </value></Data><Data name="ADRESSE"><value>05, RUE GACI AMAR, STAOUÉLI     </value></Data><Data name="VILLE"><value>STAOUELI                                                  </value></Data><Data name="WILAYA"><value>ALGER                    </value></Data></ExtendedData>
    <Point><coordinates>2.8856942,36.75340179999999,0</coordinates></Point>
  </Placemark>
  <Placemark>
    <name>832</name>
    <ExtendedData><Data name="AGENCE"><value>ALGER OUEST</value></Data><Data name="ADRESSE"><value>N° 144 Lottissement 02 Ouled Fayet</value></Data><Data name="VILLE"><value>OULED FAYET</value></Data><Data name="WILAYA"><value>ALGER                    </value></Data></ExtendedData>
    <Point><coordinates>3.0587561,36.753768,0</coordinates></Point>
  </Placemark>
  <Placemark>
    <name>405</name>
    <ExtendedData><Data name="AGENCE"><value>ES-SENIA                                                         </value></Data><Data name="ADRESSE"><value>05, RUE DES FRÈRES BAHI AMAR ES SENIA ORAN</value></Data><Data name="VILLE"><value>ES-SENIA</value></Data><Data name="WILAYA"><value>ES-SENIA                 </value></Data></ExtendedData>
    <Point><coordinates>-0.6488505,35.6406128,0</coordinates></Point>
  </Placemark>
  <Placemark>
    <name>408</name>
    <ExtendedData><Data name="AGENCE"><value>SIG                                                              </value></Data><Data name="ADRESSE"><value>29, RUE NEKKAB MILOUD SIG</value></Data><Data name="VILLE"><value>SIG</value></Data><Data name="WILAYA"><value>MASCARA                  </value></Data></ExtendedData>
    <Point><coordinates>-0.1955388,35.5312767,0</coordinates></Point>
  </Placemark>
  <Placemark>
    <name>417</name>
    <ExtendedData><Data name="AGENCE"><value>LARBI BEN M'HIDI                                                 </value></Data><Data name="ADRESSE"><value>99 RUE LABI BEN MHIDI ORAN              </value></Data><Data name="VILLE"><value>ORAN                            </value></Data><Data name="WILAYA"><value>ORAN</value></Data></ExtendedData>
    <Point><coordinates>7.0903089999999995,35.87800909999999,0</coordinates></Point>
  </Placemark>
  <Placemark>
    <name>420</name>
    <ExtendedData><Data name="AGENCE"><value>AHMED ZABANA                                                     </value></Data><Data name="ADRESSE"><value>04 RUE BOUGUETTAYA ABDELLAH ORAN    </value></Data><Data name="VILLE"><value>AHMED ZABANA</value></Data><Data name="WILAYA"><value>ORAN</value></Data></ExtendedData>
    <Point><coordinates>-0.6443182,35.6975385,0</coordinates></Point>
  </Placemark>
  <Placemark>
    <name>427</name>
    <ExtendedData><Data name="AGENCE"><value>TIGHENIF                                                         </value></Data><Data name="ADRESSE"><value>RUE DE LA PALESTINE  TIGHENNIF  </value></Data><Data name="VILLE"><value>TIGHENNIF</value></Data><Data name="WILAYA"><value>MASCARA</value></Data></ExtendedData>
    <Point><coordinates>0.32964540000000003,35.4154336,0</coordinates></Point>
  </Placemark>
  <Placemark>
    <name>428</name>
    <ExtendedData><Data name="AGENCE"><value>GHRISS                                                           </value></Data><Data name="ADRESSE"><value>PLACE ELIR AEK  GHRISS          </value></Data><Data name="VILLE"><value>GHRISS</value></Data><Data name="WILAYA"><value>MASCARA</value></Data></ExtendedData>
    <Point><coordinates>0.16822710000000002,35.236708199999995,0</coordinates></Point>
  </Placemark>
  <Placemark>
    <name>444</name>
    <ExtendedData><Data name="AGENCE"><value>ARZEW                                                            </value></Data><Data name="ADRESSE"><value>FRANTZ  FANON  ARZEW            </value></Data><Data name="VILLE"><value>ARZEW</value></Data><Data name="WILAYA"><value>ORAN</value></Data></ExtendedData>
    <Point><coordinates>-0.3465971,35.8602138,0</coordinates></Point>
  </Placemark>
  <Placemark>
    <name>470</name>
    <ExtendedData><Data name="AGENCE"><value>MASCARA                                                          </value></Data><Data name="ADRESSE"><value>RUE LARBI BEN MHIDI  MASCARA    </value></Data><Data name="VILLE"><value>MASCARA</value></Data><Data name="WILAYA"><value>MASCARA                  </value></Data></ExtendedData>
    <Point><coordinates>0.1338498,35.4006543,0</coordinates></Point>
  </Placemark>
  <Placemark>
    <name>833</name>
    <ExtendedData><Data name="AGENCE"><value>DRE ORAN</value></Data><Data name="ADRESSE"><value>IMMEUBLE BOUGATAYA ABDELLAH ORAN </value></Data><Data name="VILLE"><value>ORAN                            </value></Data><Data name="WILAYA"><value>ORAN</value></Data></ExtendedData>
    <Point><coordinates>-0.6476168000000001,35.7013957,0</coordinates></Point>
  </Placemark>
  <Placemark>
    <name>422</name>
    <ExtendedData><Data name="AGENCE"><value>AIN TEDLES                                                       </value></Data><Data name="ADRESSE"><value>12 PLACE BELATRECHE ADJEL AIN TEDLES      </value></Data><Data name="VILLE"><value>AIN TEDLES</value></Data><Data name="WILAYA"><value>MOSTAGANEM</value></Data></ExtendedData>
    <Point><coordinates>0.2948797,35.99651980000001,0</coordinates></Point>
  </Placemark>
  <Placemark>
    <name>423</name>
    <ExtendedData><Data name="AGENCE"><value>MOSTAGANEM BENSLIMANE                                            </value></Data><Data name="ADRESSE"><value>RUE FAMILLE BENZOHRA BENSLIMANE MOSTAGANEM</value></Data><Data name="VILLE"><value>BENSLIMANE</value></Data><Data name="WILAYA"><value>MOSTAGANEM</value></Data></ExtendedData>
    <Point><coordinates>0.09964999999999997,35.9306567,0</coordinates></Point>
  </Placemark>
  <Placemark>
    <name>424</name>
    <ExtendedData><Data name="AGENCE"><value>SIDI ALI                                                         </value></Data><Data name="ADRESSE"><value>01, BVD DU 1ER NOVEMBRE SIDI ALI</value></Data><Data name="VILLE"><value>SIDI ALI</value></Data><Data name="WILAYA"><value>MOSTAGANEM</value></Data></ExtendedData>
    <Point><coordinates>0.41487440000000003,36.0967786,0</coordinates></Point>
  </Placemark>
  <Placemark>
    <name>425</name>
    <ExtendedData><Data name="AGENCE"><value>MOSTAGANEM DAHRA                                                 </value></Data><Data name="ADRESSE"><value>CITÉ DES 400 LOGT BP N° 19 ROUTE D'ORAN MOSTAGANEM    </value></Data><Data name="VILLE"><value>MOSTAGANEM</value></Data><Data name="WILAYA"><value>MOSTAGANEM</value></Data></ExtendedData>
    <Point><coordinates>0.09351859999999998,35.93333769999999,0</coordinates></Point>
  </Placemark>
  <Placemark>
    <name>434</name>
    <ExtendedData><Data name="AGENCE"><value>MAZOUNA                                                          </value></Data><Data name="ADRESSE"><value>RUE DES FRÉRES BENHATCHI MAZOUNA</value></Data><Data name="VILLE"><value>MAZOUNA                         </value></Data><Data name="WILAYA"><value>RELIZANE</value></Data></ExtendedData>
    <Point><coordinates>0.8770472999999999,36.1187509,0</coordinates></Point>
  </Placemark>
  <Placemark>
    <name>459</name>
    <ExtendedData><Data name="AGENCE"><value>SOUGUEUR                                                         </value></Data><Data name="ADRESSE"><value>CENTRE COMMERCIAL SI ABDELGHANI SOUGUEUR</value></Data><Data name="VILLE"><value>SOUGUEUR</value></Data><Data name="WILAYA"><value>TIARET                   </value></Data></ExtendedData>
    <Point><coordinates>1.4966618999999997,35.17816009999999,0</coordinates></Point>
  </Placemark>
  <Placemark>
    <name>466</name>
    <ExtendedData><Data name="AGENCE"><value>TIARET                                                           </value></Data><Data name="ADRESSE"><value>03, RUE LABADI MOHAMED BP 463 TIARET</value></Data><Data name="VILLE"><value>TIARET</value></Data><Data name="WILAYA"><value>TIARET                   </value></Data></ExtendedData>
    <Point><coordinates>1.5208624,34.8529489,0</coordinates></Point>
  </Placemark>
  <Placemark>
    <name>469</name>
    <ExtendedData><Data name="AGENCE"><value>RELIZANE</value></Data><Data name="ADRESSE"><value>3 RUE ALGEZIRAS RELIZANE BP 399 RELIZANE</value></Data><Data name="VILLE"><value>RELIZANE</value></Data><Data name="WILAYA"><value>RELIZANE</value></Data></ExtendedData>
    <Point><coordinates>0.5588787,35.7339361,0</coordinates></Point>
  </Placemark>
  <Placemark>
    <name>834</name>
    <ExtendedData><Data name="AGENCE"><value>DRE MOSTAGANEM</value></Data><Data name="ADRESSE"><value>CITE DES 400 Logt Route d'Oran Mostaganem</value></Data><Data name="VILLE"><value>MOSTAGANEM</value></Data><Data name="WILAYA"><value>MOSTAGANEM</value></Data></ExtendedData>
    <Point><coordinates>0.0898956,35.9300049,0</coordinates></Point>
  </Placemark>
  <Placemark>
    <name>233</name>
    <ExtendedData><Data name="AGENCE"><value>ZIGHOUT YOUCEF                                                   </value></Data><Data name="ADRESSE"><value>05 RUE DE REVOLUTION SKIKDA     </value></Data><Data name="VILLE"><value>SKIKDA</value></Data><Data name="WILAYA"><value>SKIKDA                   </value></Data></ExtendedData>
    <Point><coordinates>6.702890399999999,36.5309186,0</coordinates></Point>
  </Placemark>
  <Placemark>
    <name>250</name>
    <ExtendedData><Data name="AGENCE"><value>EL HARROUCH                                                      </value></Data><Data name="ADRESSE"><value>RUE BACHIR BOUKADOUM EL HARROUCH        </value></Data><Data name="VILLE"><value>HARROUCH</value></Data><Data name="WILAYA"><value>SKIKDA                   </value></Data></ExtendedData>
    <Point><coordinates>6.84046,36.6557031,0</coordinates></Point>
  </Placemark>
  <Placemark>
    <name>318</name>
    <ExtendedData><Data name="AGENCE"><value>SI HAOUES                                                        </value></Data><Data name="ADRESSE"><value>15 RUE ALI BESBES CONSTANTINE   </value></Data><Data name="VILLE"><value>CONSTANTINE                    </value></Data><Data name="WILAYA"><value>CONSTANTINE              </value></Data></ExtendedData>
    <Point><coordinates>1.623867,35.3974562,0</coordinates></Point>
  </Placemark>
  <Placemark>
    <name>319</name>
    <ExtendedData><Data name="AGENCE"><value>RHUMEL                                                           </value></Data><Data name="ADRESSE"><value>01 RUE CDT SI EL HAOUES CONSTANTINE        </value></Data><Data name="VILLE"><value>CONSTANTINE                    </value></Data><Data name="WILAYA"><value>CONSTANTINE              </value></Data></ExtendedData>
    <Point><coordinates>6.159028999999999,36.15846700000001,0</coordinates></Point>
  </Placemark>
  <Placemark>
    <name>321</name>
    <ExtendedData><Data name="AGENCE"><value>CHELGHOUM LAID                                                   </value></Data><Data name="ADRESSE"><value>N° 62 RUE 05 JUILLET CHELGHOUM LAID</value></Data><Data name="VILLE"><value>CHELGHOUM LAID                                                   </value></Data><Data name="WILAYA"><value>MILA                     </value></Data></ExtendedData>
    <Point><coordinates>6.195132,36.1464769,0</coordinates></Point>
  </Placemark>
  <Placemark>
    <name>326</name>
    <ExtendedData><Data name="AGENCE"><value>AIN BEIDA                                                        </value></Data><Data name="ADRESSE"><value>PLACE DE LA PALESTINE AIN BEIDA </value></Data><Data name="VILLE"><value>AIN BEIDA</value></Data><Data name="WILAYA"><value>OUM EL BOUAGHI                                                   </value></Data></ExtendedData>
    <Point><coordinates>7.392173400000001,35.7981327,0</coordinates></Point>
  </Placemark>
  <Placemark>
    <name>360</name>
    <ExtendedData><Data name="AGENCE"><value>OUM EL BOUAGHI                                                   </value></Data><Data name="ADRESSE"><value>RUE 1ER NOVEMBRE OUM EL BOUAGHI</value></Data><Data name="VILLE"><value>OUM EL BOUAGHI                                                   </value></Data><Data name="WILAYA"><value>OUM EL BOUAGHI                                                   </value></Data></ExtendedData>
    <Point><coordinates>7.1790259999999995,35.788144900000006,0</coordinates></Point>
  </Placemark>
  <Placemark>
    <name>362</name>
    <ExtendedData><Data name="AGENCE"><value>FERDJIOUA                                                        </value></Data><Data name="ADRESSE"><value>06 BOULVARD  MOHAMED KHEMISTI FERDJIOUA  </value></Data><Data name="VILLE"><value>FERDJIOUA                                                        </value></Data><Data name="WILAYA"><value>MILA                     </value></Data></ExtendedData>
    <Point><coordinates>5.9304039,36.4084009,0</coordinates></Point>
  </Placemark>
  <Placemark>
    <name>835</name>
    <ExtendedData><Data name="AGENCE"><value>DRE Constantine</value></Data><Data name="ADRESSE"><value>01 PLACE SI EL HOUES CONSTANTINE</value></Data><Data name="VILLE"><value>CONSTANTINE                    </value></Data><Data name="WILAYA"><value>CONSTANTINE              </value></Data></ExtendedData>
    <Point><coordinates>6.6365188,36.3566244,0</coordinates></Point>
  </Placemark>
  <Placemark>
    <name>209</name>
    <ExtendedData><Data name="AGENCE"><value>CHERIA</value></Data><Data name="ADRESSE"><value>CITE 100 LOGTS CHERIA TEBESSA</value></Data><Data name="VILLE"><value>CHERIA</value></Data><Data name="WILAYA"><value>TEBESSA                  </value></Data></ExtendedData>
    <Point><coordinates>7.749696500000001,35.2721494,0</coordinates></Point>
  </Placemark>
  <Placemark>
    <name>210</name>
    <ExtendedData><Data name="AGENCE"><value>TEBESSA                                                          </value></Data><Data name="ADRESSE"><value>ROUTE MORSOT, QUARTIER DE LA REMONTE TEBESSA                      </value></Data><Data name="VILLE"><value>TEBESSA</value></Data><Data name="WILAYA"><value>TEBESSA                  </value></Data></ExtendedData>
    <Point><coordinates>8.101092000000001,35.414249399999996,0</coordinates></Point>
  </Placemark>
  <Placemark>
    <name>307</name>
    <ExtendedData><Data name="AGENCE"><value>BISKRA</value></Data><Data name="ADRESSE"><value>5 RUE DJEZZAR BISKRA</value></Data><Data name="VILLE"><value>BISKRA</value></Data><Data name="WILAYA"><value>BISKRA</value></Data></ExtendedData>
    <Point><coordinates>5.751047499999999,34.8370347,0</coordinates></Point>
  </Placemark>
  <Placemark>
    <name>308</name>
    <ExtendedData><Data name="AGENCE"><value>OULED DJELLAL                                                    </value></Data><Data name="ADRESSE"><value>CITÉ DES 200 LOGEMENTS OULED DJELLAL         </value></Data><Data name="VILLE"><value>OULED DJELLAL            </value></Data><Data name="WILAYA"><value>BISKRA</value></Data></ExtendedData>
    <Point><coordinates>5.1015225,34.4466834,0</coordinates></Point>
  </Placemark>
  <Placemark>
    <name>331</name>
    <ExtendedData><Data name="AGENCE"><value>ARRIS                                                            </value></Data><Data name="ADRESSE"><value>RUE BEN BOULAID ARRIS                </value></Data><Data name="VILLE"><value>ARRIS                    </value></Data><Data name="WILAYA"><value>BATNA                    </value></Data></ExtendedData>
    <Point><coordinates>6.3489648,35.2583295,0</coordinates></Point>
  </Placemark>
  <Placemark>
    <name>332</name>
    <ExtendedData><Data name="AGENCE"><value>BATNA BEN BOULAID                                                </value></Data><Data name="ADRESSE"><value>AVENUE DE LA REPUBLIQUE BATNA        </value></Data><Data name="VILLE"><value>BATNA                    </value></Data><Data name="WILAYA"><value>BATNA                    </value></Data></ExtendedData>
    <Point><coordinates>6.3095251,35.7572864,0</coordinates></Point>
  </Placemark>
  <Placemark>
    <name>333</name>
    <ExtendedData><Data name="AGENCE"><value>KAIS                                                             </value></Data><Data name="ADRESSE"><value>CITÉ 544 LOGEMENTS KAIS KHENCHELA             </value></Data><Data name="VILLE"><value>KAIS</value></Data><Data name="WILAYA"><value>KHENCHELA                </value></Data></ExtendedData>
    <Point><coordinates>6.9208091,35.4971318,0</coordinates></Point>
  </Placemark>
  <Placemark>
    <name>334</name>
    <ExtendedData><Data name="AGENCE"><value>BATNA 5 JUILLET </value></Data><Data name="ADRESSE"><value>CITÉ ADMINISTRATIVE, ROUTE DE BISKRA BATNA</value></Data><Data name="VILLE"><value>BATNA</value></Data><Data name="WILAYA"><value>BATNA                    </value></Data></ExtendedData>
    <Point><coordinates>6.1889996,35.5634192,0</coordinates></Point>
  </Placemark>
  <Placemark>
    <name>336</name>
    <ExtendedData><Data name="AGENCE"><value>MEROUANA                                                         </value></Data><Data name="ADRESSE"><value>CITÉ 874 LOGEMENT MEROUANA              </value></Data><Data name="VILLE"><value>MEROUANA</value></Data><Data name="WILAYA"><value>BATNA                    </value></Data></ExtendedData>
    <Point><coordinates>5.9092754,35.628774400000005,0</coordinates></Point>
  </Placemark>
  <Placemark>
    <name>337</name>
    <ExtendedData><Data name="AGENCE"><value>KHENCHELA                                                        </value></Data><Data name="ADRESSE"><value>ALLÉE 1ER NOVEMBRE 54  KHENCHELA        </value></Data><Data name="VILLE"><value>KHENCHELA</value></Data><Data name="WILAYA"><value>KHENCHELA                </value></Data></ExtendedData>
    <Point><coordinates>6.920913499999999,35.1929114,0</coordinates></Point>
  </Placemark>
  <Placemark>
    <name>836</name>
    <ExtendedData><Data name="AGENCE"><value>BATNA</value></Data><Data name="ADRESSE"><value>CITE ADMINISTRATIVE ROUTE DE BISKRA BATNA</value></Data><Data name="VILLE"><value>BATNA</value></Data><Data name="WILAYA"><value>BATNA                    </value></Data></ExtendedData>
    <Point><coordinates>6.1889996,35.5634192,0</coordinates></Point>
  </Placemark>
  <Placemark>
    <name>204</name>
    <ExtendedData><Data name="AGENCE"><value>ANNABA                                            </value></Data><Data name="ADRESSE"><value>6.RUE DU C.N.R.A ANNABA               </value></Data><Data name="VILLE"><value>ANNABA</value></Data><Data name="WILAYA"><value>ANNABA                   </value></Data></ExtendedData>
    <Point><coordinates>7.752535200000001,36.9264582,0</coordinates></Point>
  </Placemark>
  <Placemark>
    <name>205</name>
    <ExtendedData><Data name="AGENCE"><value>ANNABA                              </value></Data><Data name="ADRESSE"><value>CITÉ DES 100 LOGEMENTS ANNABA         </value></Data><Data name="VILLE"><value>ANNABA</value></Data><Data name="WILAYA"><value>ANNABA                   </value></Data></ExtendedData>
    <Point><coordinates>7.752535200000001,36.9264582,0</coordinates></Point>
  </Placemark>
  <Placemark>
    <name>207</name>
    <ExtendedData><Data name="AGENCE"><value>SEDRATA                                                          </value></Data><Data name="ADRESSE"><value>ROUTE MORSOT SEDRATA                   </value></Data><Data name="VILLE"><value>SEDRATA                                                          </value></Data><Data name="WILAYA"><value>SOUK AHRAS               </value></Data></ExtendedData>
    <Point><coordinates>7.532565999999999,36.13085600000001,0</coordinates></Point>
  </Placemark>
  <Placemark>
    <name>230</name>
    <ExtendedData><Data name="AGENCE"><value>AZZABA                                                           </value></Data><Data name="ADRESSE"><value>05 RUE DES FRERES DJEZZAR AZZABA      </value></Data><Data name="VILLE"><value>AZZABA                                                           </value></Data><Data name="WILAYA"><value>SKIKDA                   </value></Data></ExtendedData>
    <Point><coordinates>7.1170952,36.7441137,0</coordinates></Point>
  </Placemark>
  <Placemark>
    <name>231</name>
    <ExtendedData><Data name="AGENCE"><value>EL TARF                                                          </value></Data><Data name="ADRESSE"><value>CITÉ DES 200 LOGEMENTS EL TARF         </value></Data><Data name="VILLE"><value>EL TARF</value></Data><Data name="WILAYA"><value>EL TARF</value></Data></ExtendedData>
    <Point><coordinates>8.2212979,36.7558581,0</coordinates></Point>
  </Placemark>
  <Placemark>
    <name>232</name>
    <ExtendedData><Data name="AGENCE"><value>GUELMA                                                           </value></Data><Data name="ADRESSE"><value>RUE DEBBACHE ABDERRAZAK GUELMA        </value></Data><Data name="VILLE"><value>GUELMA</value></Data><Data name="WILAYA"><value>GUELMA</value></Data></ExtendedData>
    <Point><coordinates>7.4327273,36.458976,0</coordinates></Point>
  </Placemark>
  <Placemark>
    <name>234</name>
    <ExtendedData><Data name="AGENCE"><value>SOUK AHRAS                                                       </value></Data><Data name="ADRESSE"><value>RUE BEN BOULAID SOUK AHRAS                </value></Data><Data name="VILLE"><value>SOUK AHRAS</value></Data><Data name="WILAYA"><value>SOUK AHRAS               </value></Data></ExtendedData>
    <Point><coordinates>7.948389799999999,36.2695872,0</coordinates></Point>
  </Placemark>
  <Placemark>
    <name>235</name>
    <ExtendedData><Data name="AGENCE"><value>BOUCHEGOUF                                                       </value></Data><Data name="ADRESSE"><value>AVENUE DE LA REPUBLIQUE BOUCHEGOUF         </value></Data><Data name="VILLE"><value>BOUCHEGOUF</value></Data><Data name="WILAYA"><value>GUELMA</value></Data></ExtendedData>
    <Point><coordinates>7.736238400000002,36.471927099999995,0</coordinates></Point>
  </Placemark>
  <Placemark>
    <name>274</name>
    <ExtendedData><Data name="AGENCE"><value>ANNABA 1ER NOVEMBRE                                              </value></Data><Data name="ADRESSE"><value>1ER NOVEMBRE ANNABA            </value></Data><Data name="VILLE"><value>ANNABA</value></Data><Data name="WILAYA"><value>ANNABA                   </value></Data></ExtendedData>
    <Point><coordinates>7.7605577,36.905516899999995,0</coordinates></Point>
  </Placemark>
  <Placemark>
    <name>837</name>
    <ExtendedData><Data name="AGENCE"><value>ANNABA</value></Data><Data name="ADRESSE"><value>RESIDENCE ES SAFA ANNABA </value></Data><Data name="VILLE"><value>ANNABA</value></Data><Data name="WILAYA"><value>ANNABA                   </value></Data></ExtendedData>
    <Point><coordinates>7.742667300000001,36.9142081,0</coordinates></Point>
  </Placemark>
  <Placemark>
    <name>154</name>
    <ExtendedData><Data name="AGENCE"><value>AIN DEFLA                                                        </value></Data><Data name="ADRESSE"><value>RUE EMIR ABDELKADER , AIN DEFLA </value></Data><Data name="VILLE"><value>AIN DEFLA</value></Data><Data name="WILAYA"><value>AIN DEFLA                </value></Data></ExtendedData>
    <Point><coordinates>1.9881526999999999,36.072919299999995,0</coordinates></Point>
  </Placemark>
  <Placemark>
    <name>155</name>
    <ExtendedData><Data name="AGENCE"><value>KHEMMIS MELIANA </value></Data><Data name="ADRESSE"><value>RUE DU 20 AOUT 1955 KHEMIS MILIANA</value></Data><Data name="VILLE"><value>MILIANA</value></Data><Data name="WILAYA"><value>AIN DEFLA                </value></Data></ExtendedData>
    <Point><coordinates>2.2343578,36.2609828,0</coordinates></Point>
  </Placemark>
  <Placemark>
    <name>164</name>
    <ExtendedData><Data name="AGENCE"><value>OULED FARES                                                      </value></Data><Data name="ADRESSE"><value>RUE PRINCIPALE, OULED FARES CHLEF    </value></Data><Data name="VILLE"><value>OULED FARES</value></Data><Data name="WILAYA"><value>CHLEF                    </value></Data></ExtendedData>
    <Point><coordinates>1.236999,36.2316052,0</coordinates></Point>
  </Placemark>
  <Placemark>
    <name>168</name>
    <ExtendedData><Data name="AGENCE"><value>CHLEF                                                            </value></Data><Data name="ADRESSE"><value>35 RUE DES MARTYRS CHLEF       </value></Data><Data name="VILLE"><value>CHLEF</value></Data><Data name="WILAYA"><value>CHLEF                    </value></Data></ExtendedData>
    <Point><coordinates>1.3083792,36.1476059,0</coordinates></Point>
  </Placemark>
  <Placemark>
    <name>174</name>
    <ExtendedData><Data name="AGENCE"><value>CHLEF</value></Data><Data name="ADRESSE"><value>RUE DES GAZELLES </value></Data><Data name="VILLE"><value>CHLEF</value></Data><Data name="WILAYA"><value>CHLEF                    </value></Data></ExtendedData>
    <Point><coordinates>1.3372823,36.1579664,0</coordinates></Point>
  </Placemark>
  <Placemark>
    <name>178</name>
    <ExtendedData><Data name="AGENCE"><value>BOUKADIR                                                         </value></Data><Data name="ADRESSE"><value>RUE MOHAMED GHOLAMINE, BOUKADIR </value></Data><Data name="VILLE"><value>BOUKADIR                 </value></Data><Data name="WILAYA"><value>CHLEF                    </value></Data></ExtendedData>
    <Point><coordinates>1.1209120999999997,36.0569401,0</coordinates></Point>
  </Placemark>
  <Placemark>
    <name>179</name>
    <ExtendedData><Data name="AGENCE"><value>TENES                                                            </value></Data><Data name="ADRESSE"><value>RUE DE LA RÉVOLUTION, TÉNÈS     </value></Data><Data name="VILLE"><value>TENES                    </value></Data><Data name="WILAYA"><value>CHLEF                    </value></Data></ExtendedData>
    <Point><coordinates>1.3180041999999996,36.504903799999994,0</coordinates></Point>
  </Placemark>
  <Placemark>
    <name>433</name>
    <ExtendedData><Data name="AGENCE"><value>OUED R'HIOU                                                      </value></Data><Data name="ADRESSE"><value>RUE TAZGHAIT DJILALI OUED RHIOU      </value></Data><Data name="VILLE"><value>OUED RHIOU                      </value></Data><Data name="WILAYA"><value>RELIZANE</value></Data></ExtendedData>
    <Point><coordinates>0.9199773,35.96071070000001,0</coordinates></Point>
  </Placemark>
  <Placemark>
    <name>455</name>
    <ExtendedData><Data name="AGENCE"><value>BORDJ BOU NAAMA                                                  </value></Data><Data name="ADRESSE"><value>CITÉ DES 300 LOGEMENTS, BORDJ BOU NAAMA        </value></Data><Data name="VILLE"><value>BORDJ BOU NAAMA                 </value></Data><Data name="WILAYA"><value>TISSEMSILT               </value></Data></ExtendedData>
    <Point><coordinates>1.615375,35.8526248,0</coordinates></Point>
  </Placemark>
  <Placemark>
    <name>467</name>
    <ExtendedData><Data name="AGENCE"><value>TISSEMSILT                                                       </value></Data><Data name="ADRESSE"><value>52, RUE ARIB DJILALI TISSEMSILT         </value></Data><Data name="VILLE"><value>TISSEMSILT                      </value></Data><Data name="WILAYA"><value>TISSEMSILT               </value></Data></ExtendedData>
    <Point><coordinates>1.9099238,35.6382064,0</coordinates></Point>
  </Placemark>
  <Placemark>
    <name>838</name>
    <ExtendedData><Data name="AGENCE"><value>DRE CHLEF</value></Data><Data name="ADRESSE"><value>RUE DES GAZELLES CHLEF</value></Data><Data name="VILLE"><value>CHLEF</value></Data><Data name="WILAYA"><value>CHLEF                    </value></Data></ExtendedData>
    <Point><coordinates>1.3341863,36.1670852,0</coordinates></Point>
  </Placemark>
  <Placemark>
    <name>138</name>
    <ExtendedData><Data name="AGENCE"><value>BOGHNI                                                           </value></Data><Data name="ADRESSE"><value>CITÉ 18 LOGEMENTS, BOGHNI      </value></Data><Data name="VILLE"><value>BOGHNI</value></Data><Data name="WILAYA"><value>TIZI-OUZOU               </value></Data></ExtendedData>
    <Point><coordinates>3.9558753000000006,36.5410545,0</coordinates></Point>
  </Placemark>
  <Placemark>
    <name>144</name>
    <ExtendedData><Data name="AGENCE"><value>TIGZIRT                                                          </value></Data><Data name="ADRESSE"><value>CITÉ 150 LOGTS, TIGZIRT         </value></Data><Data name="VILLE"><value>TIGZIRT                  </value></Data><Data name="WILAYA"><value>TIZI-OUZOU               </value></Data></ExtendedData>
    <Point><coordinates>4.1267837,36.8905856,0</coordinates></Point>
  </Placemark>
  <Placemark>
    <name>145</name>
    <ExtendedData><Data name="AGENCE"><value>FREHA                                                            </value></Data><Data name="ADRESSE"><value>CITÉ 18 LOGTS, FREHA</value></Data><Data name="VILLE"><value>FREHA</value></Data><Data name="WILAYA"><value>TIZI-OUZOU               </value></Data></ExtendedData>
    <Point><coordinates>4.3177067,36.758426299999996,0</coordinates></Point>
  </Placemark>
  <Placemark>
    <name>147</name>
    <ExtendedData><Data name="AGENCE"><value>DJURDJURA                                                        </value></Data><Data name="ADRESSE"><value>BOULEVARD STITTI ALI TIZI OUZOU</value></Data><Data name="VILLE"><value>TIZI-OUZOU                      </value></Data><Data name="WILAYA"><value>TIZI-OUZOU               </value></Data></ExtendedData>
    <Point><coordinates>4.228333,36.44749999999999,0</coordinates></Point>
  </Placemark>
  <Placemark>
    <name>151</name>
    <ExtendedData><Data name="AGENCE"><value>AZZAZGA                                                          </value></Data><Data name="ADRESSE"><value>RUE BELKACEM HANAFI AZAZGA      </value></Data><Data name="VILLE"><value>AZAZGA</value></Data><Data name="WILAYA"><value>TIZI-OUZOU               </value></Data></ExtendedData>
    <Point><coordinates>4.3667907,36.7343859,0</coordinates></Point>
  </Placemark>
  <Placemark>
    <name>160</name>
    <ExtendedData><Data name="AGENCE"><value>NOUVELLE VILLE                                                   </value></Data><Data name="ADRESSE"><value>CITÉ 145 LOGEMENTS  TIZI OUZOU  </value></Data><Data name="VILLE"><value>TIZI-OUZOU                      </value></Data><Data name="WILAYA"><value>TIZI-OUZOU               </value></Data></ExtendedData>
    <Point><coordinates>4.0357937,36.7093938,0</coordinates></Point>
  </Placemark>
  <Placemark>
    <name>161</name>
    <ExtendedData><Data name="AGENCE"><value>AIN EL HAMMAM                                                    </value></Data><Data name="ADRESSE"><value>ABI YOUCEF AIN EL HAMMAM          </value></Data><Data name="VILLE"><value>AIN EL HAMMAM            </value></Data><Data name="WILAYA"><value>TIZI-OUZOU               </value></Data></ExtendedData>
    <Point><coordinates>4.2846246,36.56502019999999,0</coordinates></Point>
  </Placemark>
  <Placemark>
    <name>162</name>
    <ExtendedData><Data name="AGENCE"><value>BOUZGUENE                                                        </value></Data><Data name="ADRESSE"><value>BOUZEGUENE CENTRE BOUZEGUENE    </value></Data><Data name="VILLE"><value>BOUZGUENE                </value></Data><Data name="WILAYA"><value>TIZI-OUZOU               </value></Data></ExtendedData>
    <Point><coordinates>4.4725912,36.61413030000001,0</coordinates></Point>
  </Placemark>
  <Placemark>
    <name>163</name>
    <ExtendedData><Data name="AGENCE"><value>DRAÂ BEN KHEDDA                                                  </value></Data><Data name="ADRESSE"><value>CITÉ 22 LOGEMENTS DRA BEN KHEDDA</value></Data><Data name="VILLE"><value>DRAÂ BEN KHEDDA          </value></Data><Data name="WILAYA"><value>TIZI-OUZOU               </value></Data></ExtendedData>
    <Point><coordinates>3.9652508999999996,36.73096040000001,0</coordinates></Point>
  </Placemark>
  <Placemark>
    <name>171</name>
    <ExtendedData><Data name="AGENCE"><value>SI ABDELLAH                                                      </value></Data><Data name="ADRESSE"><value>66 RUE CAPITAINE SI ABDELLAH TIZI OUZOU   </value></Data><Data name="VILLE"><value>TIZI-OUZOU                      </value></Data><Data name="WILAYA"><value>TIZI-OUZOU               </value></Data></ExtendedData>
    <Point><coordinates>4.2778753,36.6837336,0</coordinates></Point>
  </Placemark>
  <Placemark>
    <name>839</name>
    <ExtendedData><Data name="AGENCE"><value>DRE TIZI-OUZOU</value></Data><Data name="ADRESSE"><value>BOULEVARD STITTI ALI TIZI OUZOU</value></Data><Data name="VILLE"><value>TIZI-OUZOU                      </value></Data><Data name="WILAYA"><value>TIZI-OUZOU</value></Data></ExtendedData>
    <Point><coordinates>4.315422,36.617812,0</coordinates></Point>
  </Placemark>
  <Placemark>
    <name>418</name>
    <ExtendedData><Data name="AGENCE"><value>MAGHNIA                                                          </value></Data><Data name="ADRESSE"><value>RUE MOHAMED BOUDIAF MAGHNIA     </value></Data><Data name="VILLE"><value>MAGHNIA                  </value></Data><Data name="WILAYA"><value>TLEMCEN                  </value></Data></ExtendedData>
    <Point><coordinates>-1.7349660999999998,34.8534497,0</coordinates></Point>
  </Placemark>
  <Placemark>
    <name>419</name>
    <ExtendedData><Data name="AGENCE"><value>AIN TEMOUCHENT                                                   </value></Data><Data name="ADRESSE"><value>RUE MOHAMMED BOUDIAF AIN TEMOUCHENT</value></Data><Data name="VILLE"><value>AIN TEMOUCHENT                      </value></Data><Data name="WILAYA"><value>AIN TEMOUCHENT           </value></Data></ExtendedData>
    <Point><coordinates>-0.9820667999999997,35.2987531,0</coordinates></Point>
  </Placemark>
  <Placemark>
    <name>426</name>
    <ExtendedData><Data name="AGENCE"><value>BENI SAF                                                         </value></Data><Data name="ADRESSE"><value>RUE DRIS BENTALHA BENI SAF      </value></Data><Data name="VILLE"><value>BENI SAF</value></Data><Data name="WILAYA"><value>AIN TEMOUCHENT           </value></Data></ExtendedData>
    <Point><coordinates>-1.3710402000000002,35.3004743,0</coordinates></Point>
  </Placemark>
  <Placemark>
    <name>430</name>
    <ExtendedData><Data name="AGENCE"><value>NEDROMA                                                          </value></Data><Data name="ADRESSE"><value>RUE 20 AOÛT 1956 NEDROMA        </value></Data><Data name="VILLE"><value>NEDROMA</value></Data><Data name="WILAYA"><value>TLEMCEN                  </value></Data></ExtendedData>
    <Point><coordinates>-1.7490143,35.0097474,0</coordinates></Point>
  </Placemark>
  <Placemark>
    <name>431</name>
    <ExtendedData><Data name="AGENCE"><value>REMCHI                                                           </value></Data><Data name="ADRESSE"><value>RUE  AHMED MEDEGHRI REMCHI            </value></Data><Data name="VILLE"><value>REMCHI                   </value></Data><Data name="WILAYA"><value>TLEMCEN                  </value></Data></ExtendedData>
    <Point><coordinates>-1.4289733999999998,35.0579657,0</coordinates></Point>
  </Placemark>
  <Placemark>
    <name>464</name>
    <ExtendedData><Data name="AGENCE"><value>TLEMCEN                                                          </value></Data><Data name="ADRESSE"><value>RUE DE LA PAIX TLEMCEN</value></Data><Data name="VILLE"><value>TLEMCEN                         </value></Data><Data name="WILAYA"><value>TLEMCEN                  </value></Data></ExtendedData>
    <Point><coordinates>-1.3180042,34.888406200000006,0</coordinates></Point>
  </Placemark>
  <Placemark>
    <name>473</name>
    <ExtendedData><Data name="AGENCE"><value>SIDI BEL ABBES                                                   </value></Data><Data name="ADRESSE"><value>RUE BENALI BELKHALED SIDI BEL ABBES</value></Data><Data name="VILLE"><value>SIDI BEL ABBES           </value></Data><Data name="WILAYA"><value>SIDI BEL ABBES           </value></Data></ExtendedData>
    <Point><coordinates>-0.6298922000000002,35.202224900000004,0</coordinates></Point>
  </Placemark>
  <Placemark>
    <name>840</name>
    <ExtendedData><Data name="AGENCE"><value>TLEMCEN</value></Data><Data name="ADRESSE"><value>RUE AHMED MADEGHRI REMCHI TLEMCEN</value></Data><Data name="VILLE"><value>TLEMCEN                         </value></Data><Data name="WILAYA"><value>TLEMCEN</value></Data></ExtendedData>
    <Point><coordinates>-1.3166815,34.8828864,0</coordinates></Point>
  </Placemark>
  <Placemark>
    <name>127</name>
    <ExtendedData><Data name="AGENCE"><value>BOUSAADA </value></Data><Data name="ADRESSE"><value>AVENUE DE LA RÉPUBLIQUE BOUSAÂDA</value></Data><Data name="VILLE"><value>BOUSAADA                 </value></Data><Data name="WILAYA"><value>M'SILA                   </value></Data></ExtendedData>
    <Point><coordinates>4.181463,35.2163516,0</coordinates></Point>
  </Placemark>
  <Placemark>
    <name>159</name>
    <ExtendedData><Data name="AGENCE"><value>BERROUAGHIA                                                      </value></Data><Data name="ADRESSE"><value>CITÉ DES 483 LOGEMENTS BERROUAGHIA</value></Data><Data name="VILLE"><value>BERROUAGHIA              </value></Data><Data name="WILAYA"><value>MEDEA                    </value></Data></ExtendedData>
    <Point><coordinates>2.9175955,36.1625653,0</coordinates></Point>
  </Placemark>
  <Placemark>
    <name>184</name>
    <ExtendedData><Data name="AGENCE"><value>BOUIRA                                                           </value></Data><Data name="ADRESSE"><value>RUE DU 20 AOUT 1955 BOUIRA      </value></Data><Data name="VILLE"><value>BOUIRA</value></Data><Data name="WILAYA"><value>BOUIRA                   </value></Data></ExtendedData>
    <Point><coordinates>3.9878427,36.2835299,0</coordinates></Point>
  </Placemark>
  <Placemark>
    <name>187</name>
    <ExtendedData><Data name="AGENCE"><value>DJELFA                                                           </value></Data><Data name="ADRESSE"><value>CITÉ NOUVELLE MOSQUÉE DJELFA   </value></Data><Data name="VILLE"><value>DJELFA</value></Data><Data name="WILAYA"><value>DJELFA                   </value></Data></ExtendedData>
    <Point><coordinates>3.2684214999999996,34.6751691,0</coordinates></Point>
  </Placemark>
  <Placemark>
    <name>190</name>
    <ExtendedData><Data name="AGENCE"><value>AIN OUSSERA                                                      </value></Data><Data name="ADRESSE"><value>BOULEVARD DE L'HÔPITAL N° 45 AIN OUSSERA   </value></Data><Data name="VILLE"><value>AIN OUSSERA    </value></Data><Data name="WILAYA"><value>DJELFA                   </value></Data></ExtendedData>
    <Point><coordinates>2.9076093999999997,35.454265299999996,0</coordinates></Point>
  </Placemark>
  <Placemark>
    <name>841</name>
    <ExtendedData><Data name="AGENCE"><value>Sour El Ghozlane</value></Data><Data name="ADRESSE"><value>Rue ZEGUICHE MOHAMED Sour el Gohzlan</value></Data><Data name="VILLE"><value>SOUR EL GHOZLANE         </value></Data><Data name="WILAYA"><value>BOUIRA                   </value></Data></ExtendedData>
    <Point><coordinates>3.7074189,36.1508804,0</coordinates></Point>
  </Placemark>
  <Placemark>
    <name>429</name>
    <ExtendedData><Data name="AGENCE"><value>ADRAR                                                            </value></Data><Data name="ADRESSE"><value>RUE KADDOUR BELETIME ADRAR</value></Data><Data name="VILLE"><value>ADRAR</value></Data><Data name="WILAYA"><value>ADRAR                    </value></Data></ExtendedData>
    <Point><coordinates>-0.1869644,27.971634199999997,0</coordinates></Point>
  </Placemark>
  <Placemark>
    <name>450</name>
    <ExtendedData><Data name="AGENCE"><value>TIMIMOUN                                                         </value></Data><Data name="ADRESSE"><value>AVENUE 1ER NOVEMBRE 54 TIMIMOUN</value></Data><Data name="VILLE"><value>TIMIMOUN</value></Data><Data name="WILAYA"><value>ADRAR                    </value></Data></ExtendedData>
    <Point><coordinates>0.2385387,29.260921700000008,0</coordinates></Point>
  </Placemark>
  <Placemark>
    <name>463</name>
    <ExtendedData><Data name="AGENCE"><value>TINDOUF                                                          </value></Data><Data name="ADRESSE"><value>RUE GHAZI HOUCINE HAI KSABI TINDOUF    </value></Data><Data name="VILLE"><value>TINDOUF                         </value></Data><Data name="WILAYA"><value>TINDOUF                  </value></Data></ExtendedData>
    <Point><coordinates>-7.914624,27.9448754,0</coordinates></Point>
  </Placemark>
  <Placemark>
    <name>465</name>
    <ExtendedData><Data name="AGENCE"><value>BECHAR                                                           </value></Data><Data name="ADRESSE"><value>RUE CHERGUI KADA, BECHAR     </value></Data><Data name="VILLE"><value>BECHAR</value></Data><Data name="WILAYA"><value>BECHAR                   </value></Data></ExtendedData>
    <Point><coordinates>-2.2127352,31.6169701,0</coordinates></Point>
  </Placemark>
  <Placemark>
    <name>842</name>
    <ExtendedData><Data name="AGENCE"><value>DRE BECHAR</value></Data><Data name="ADRESSE"><value>CITE DES 68 LOGEMENTS BECHAR</value></Data><Data name="VILLE"><value>BECHAR</value></Data><Data name="WILAYA"><value>BECHAR</value></Data></ExtendedData>
    <Point><coordinates>-1.9691379,31.0523013,0</coordinates></Point>
  </Placemark>
  <Placemark>
    <name>125</name>
    <ExtendedData><Data name="AGENCE"><value>GUERRARA</value></Data><Data name="ADRESSE"><value>RUE EMIR ABDELKADER GUERRARA</value></Data><Data name="VILLE"><value>GUERRARA</value></Data><Data name="WILAYA"><value>GHARDAÏA                 </value></Data></ExtendedData>
    <Point><coordinates>4.492221499999999,32.790054399999995,0</coordinates></Point>
  </Placemark>
  <Placemark>
    <name>167</name>
    <ExtendedData><Data name="AGENCE"><value>LAGHOUAT                                                         </value></Data><Data name="ADRESSE"><value>CITÉ BENSAHNOUN MAAMOURAH,      </value></Data><Data name="VILLE"><value>LAGHOUAT     </value></Data><Data name="WILAYA"><value>LAGHOUAT                 </value></Data></ExtendedData>
    <Point><coordinates>2.8694064999999997,33.797255099999994,0</coordinates></Point>
  </Placemark>
  <Placemark>
    <name>185</name>
    <ExtendedData><Data name="AGENCE"><value>GHARDAÏA                                                         </value></Data><Data name="ADRESSE"><value>AVENUE TALBI AHMED BP 385 CNE   </value></Data><Data name="VILLE"><value>GHARDAÏA                 </value></Data><Data name="WILAYA"><value>GHARDAÏA                 </value></Data></ExtendedData>
    <Point><coordinates>3.6738411999999996,32.4902246,0</coordinates></Point>
  </Placemark>
  <Placemark>
    <name>189</name>
    <ExtendedData><Data name="AGENCE"><value>BERRIANE                                                         </value></Data><Data name="ADRESSE"><value>RUE DE L'INDEPEN 6 CNE BERRIANE </value></Data><Data name="VILLE"><value>BERRIANE                 </value></Data><Data name="WILAYA"><value>GHARDAÏA                 </value></Data></ExtendedData>
    <Point><coordinates>3.7718098,32.83376689999999,0</coordinates></Point>
  </Placemark>
  <Placemark>
    <name>197</name>
    <ExtendedData><Data name="AGENCE"><value>EL MENEA                                                         </value></Data><Data name="ADRESSE"><value>RUE MUSTAPHA HARKATI , EL MENEA,</value></Data><Data name="VILLE"><value>EL MENEA                 </value></Data><Data name="WILAYA"><value>GHARDAÏA                 </value></Data></ExtendedData>
    <Point><coordinates>2.8433643,30.9404064,0</coordinates></Point>
  </Placemark>
  <Placemark>
    <name>199</name>
    <ExtendedData><Data name="AGENCE"><value>AFLOU                                                            </value></Data><Data name="ADRESSE"><value>RUE COLONEL LOTFI, AFLOU,       </value></Data><Data name="VILLE"><value>AFLOU</value></Data><Data name="WILAYA"><value>LAGHOUAT                        </value></Data></ExtendedData>
    <Point><coordinates>2.1008486,34.107486400000006,0</coordinates></Point>
  </Placemark>
  <Placemark>
    <name>843</name>
    <ExtendedData><Data name="AGENCE"><value>DRE GHARDAIA</value></Data><Data name="ADRESSE"><value>AVENUE TALBI AHMED BP 424 GHARDAIA</value></Data><Data name="VILLE"><value>GHARDAÏA                 </value></Data><Data name="WILAYA"><value>GHARDAÏA</value></Data></ExtendedData>
    <Point><coordinates>3.7106456999999993,32.4339084,0</coordinates></Point>
  </Placemark>
  <Placemark>
    <name>133</name>
    <ExtendedData><Data name="AGENCE"><value>BEJAIA LIBERTÉ                                                   </value></Data><Data name="ADRESSE"><value>33, RUE DE LA LIBERTÉ BEJAIA</value></Data><Data name="VILLE"><value>BEJAIA                          </value></Data><Data name="WILAYA"><value>BEJAIA                   </value></Data></ExtendedData>
    <Point><coordinates>5.0714885999999995,36.7527769,0</coordinates></Point>
  </Placemark>
  <Placemark>
    <name>134</name>
    <ExtendedData><Data name="AGENCE"><value>SIDI AÏCH                                                        </value></Data><Data name="ADRESSE"><value>AVENUE DU 1ER NOVEMBRE</value></Data><Data name="VILLE"><value>SIDI AICH</value></Data><Data name="WILAYA"><value>BEJAIA                  </value></Data></ExtendedData>
    <Point><coordinates>4.6915484,36.6090172,0</coordinates></Point>
  </Placemark>
  <Placemark>
    <name>142</name>
    <ExtendedData><Data name="AGENCE"><value>EL KSEUR                                                         </value></Data><Data name="ADRESSE"><value>RUE ATTIR SALAH</value></Data><Data name="VILLE"><value>EL-KSEUR</value></Data><Data name="WILAYA"><value>BEJAIA                   </value></Data></ExtendedData>
    <Point><coordinates>4.8545628999999995,36.6803265,0</coordinates></Point>
  </Placemark>
  <Placemark>
    <name>152</name>
    <ExtendedData><Data name="AGENCE"><value>BEJAIA PLAINE                                                    </value></Data><Data name="ADRESSE"><value>CITE TOBBAL  BEJAIA             </value></Data><Data name="VILLE"><value>BEJAIA                          </value></Data><Data name="WILAYA"><value>BEJAIA                   </value></Data></ExtendedData>
    <Point><coordinates>5.0710942999999995,36.748620499999994,0</coordinates></Point>
  </Placemark>
  <Placemark>
    <name>153</name>
    <ExtendedData><Data name="AGENCE"><value>AKBOU                                                            </value></Data><Data name="ADRESSE"><value>LOTISSEMENT RAHBA  AKBOU.       </value></Data><Data name="VILLE"><value>AKBOU</value></Data><Data name="WILAYA"><value>BEJAIA</value></Data></ExtendedData>
    <Point><coordinates>4.5334783,36.45901610000001,0</coordinates></Point>
  </Placemark>
  <Placemark>
    <name>327</name>
    <ExtendedData><Data name="AGENCE"><value>TAHER EL-BARAKA                                                  </value></Data><Data name="ADRESSE"><value>CENTRE COMMERCIAL PLACE DE LA REPUBLIQUE JIJEL       </value></Data><Data name="VILLE"><value>JIJEL</value></Data><Data name="WILAYA"><value>JIJEL                    </value></Data></ExtendedData>
    <Point><coordinates>5.8968086,36.7703163,0</coordinates></Point>
  </Placemark>
  <Placemark>
    <name>363</name>
    <ExtendedData><Data name="AGENCE"><value>JIJEL</value></Data><Data name="ADRESSE"><value>PLACE DU 1 ER NOVEMBRE JIJEL </value></Data><Data name="VILLE"><value>JIJEL</value></Data><Data name="WILAYA"><value>JIJEL                    </value></Data></ExtendedData>
    <Point><coordinates>5.749093299999998,36.81673869999999,0</coordinates></Point>
  </Placemark>
  <Placemark>
    <name>844</name>
    <ExtendedData><Data name="AGENCE"><value>DRE BEJAIA</value></Data><Data name="ADRESSE"><value>RUE AHMED OUGANA BEJAIA</value></Data><Data name="VILLE"><value>BEJAIA                          </value></Data><Data name="WILAYA"><value>BEJAIA</value></Data></ExtendedData>
    <Point><coordinates>5.0482768,36.74297229999999,0</coordinates></Point>
  </Placemark>
  <Placemark>
    <name>120</name>
    <ExtendedData><Data name="AGENCE"><value>TIPAZA                                                           </value></Data><Data name="ADRESSE"><value>RUE DE LA PIETONNIÉRE N° 01     </value></Data><Data name="VILLE"><value>TIPAZA</value></Data><Data name="WILAYA"><value>TIPAZA                   </value></Data></ExtendedData>
    <Point><coordinates>2.3813621000000005,36.4992918,0</coordinates></Point>
  </Placemark>
  <Placemark>
    <name>121</name>
    <ExtendedData><Data name="AGENCE"><value>AIN TAGOURAIT                                                    </value></Data><Data name="ADRESSE"><value>RUE 1ER NOVEMBRE AIN TAGOURAIT  </value></Data><Data name="VILLE"><value>AIN TAGOURAIT            </value></Data><Data name="WILAYA"><value>TIPAZA                   </value></Data></ExtendedData>
    <Point><coordinates>2.5842061999999992,36.586886299999996,0</coordinates></Point>
  </Placemark>
  <Placemark>
    <name>135</name>
    <ExtendedData><Data name="AGENCE"><value>CHERCHELL                                                        </value></Data><Data name="ADRESSE"><value>RUE YOUCEF KHOUDJA CHERCHELL    </value></Data><Data name="VILLE"><value>CHERCHELL</value></Data><Data name="WILAYA"><value>TIPAZA                   </value></Data></ExtendedData>
    <Point><coordinates>2.2039933,36.56750399999999,0</coordinates></Point>
  </Placemark>
  <Placemark>
    <name>139</name>
    <ExtendedData><Data name="AGENCE"><value>MÉDÉA </value></Data><Data name="ADRESSE"><value>RUE DOCTEUR BOUDHERBA ISMAIL    </value></Data><Data name="VILLE"><value>MEDEA                          </value></Data><Data name="WILAYA"><value>MEDEA                    </value></Data></ExtendedData>
    <Point><coordinates>2.7586773,36.2636153,0</coordinates></Point>
  </Placemark>
  <Placemark>
    <name>181</name>
    <ExtendedData><Data name="AGENCE"><value>BLIDA 1                                                          </value></Data><Data name="ADRESSE"><value>RUE DE LA PALESTINE CITE PIMA   </value></Data><Data name="VILLE"><value>BLIDA</value></Data><Data name="WILAYA"><value>BLIDA                    </value></Data></ExtendedData>
    <Point><coordinates>2.8759097,36.5047695,0</coordinates></Point>
  </Placemark>
  <Placemark>
    <name>182</name>
    <ExtendedData><Data name="AGENCE"><value>HADJOUT                                                          </value></Data><Data name="ADRESSE"><value>63 FETTAKA ALI  HADJOUT TIPAZA  </value></Data><Data name="VILLE"><value>HADJOUT</value></Data><Data name="WILAYA"><value>TIPAZA                   </value></Data></ExtendedData>
    <Point><coordinates>2.4141276,36.5124409,0</coordinates></Point>
  </Placemark>
  <Placemark>
    <name>194</name>
    <ExtendedData><Data name="AGENCE"><value>BLIDA 2                                                          </value></Data><Data name="ADRESSE"><value>BOULEVARD TAKARLI ABDEREZAK     </value></Data><Data name="VILLE"><value>BLIDA                          </value></Data><Data name="WILAYA"><value>BLIDA                    </value></Data></ExtendedData>
    <Point><coordinates>2.6409287999999997,36.453167799999996,0</coordinates></Point>
  </Placemark>
  <Placemark>
    <name>195</name>
    <ExtendedData><Data name="AGENCE"><value>BOUINAN                                                          </value></Data><Data name="ADRESSE"><value>CITE DES 50 LOGEMENTS,          </value></Data><Data name="VILLE"><value>BOUINAN                                                          </value></Data><Data name="WILAYA"><value>BLIDA                    </value></Data></ExtendedData>
    <Point><coordinates>2.9875564999999997,36.5181119,0</coordinates></Point>
  </Placemark>
  <Placemark>
    <name>196</name>
    <ExtendedData><Data name="AGENCE"><value>BOUFARIK                                                         </value></Data><Data name="ADRESSE"><value>BOULEVARD MOKHTARI ALI BOUFARIK</value></Data><Data name="VILLE"><value>BOUFARIK                                                         </value></Data><Data name="WILAYA"><value>BLIDA                    </value></Data></ExtendedData>
    <Point><coordinates>2.9076093999999992,36.5848591,0</coordinates></Point>
  </Placemark>
  <Placemark>
    <name>845</name>
    <ExtendedData><Data name="AGENCE"><value>DRE  BLIDA</value></Data><Data name="ADRESSE"><value>BOULEVARD TAKARLI ABDEREZAK BLIDA</value></Data><Data name="VILLE"><value>BLIDA</value></Data><Data name="WILAYA"><value>BLIDA</value></Data></ExtendedData>
    <Point><coordinates>2.8322290000000003,36.4713594,0</coordinates></Point>
  </Placemark>
  <Placemark>
    <name>140</name>
    <ExtendedData><Data name="AGENCE"><value>AIN TAYA                                                         </value></Data><Data name="ADRESSE"><value>AVENUE ALI KHOUDJA AIN TAYA     </value></Data><Data name="VILLE"><value>AIN TAYA</value></Data><Data name="WILAYA"><value>ALGER                    </value></Data></ExtendedData>
    <Point><coordinates>3.2835137,36.7852529,0</coordinates></Point>
  </Placemark>
  <Placemark>
    <name>143</name>
    <ExtendedData><Data name="AGENCE"><value>DELLYS                                                           </value></Data><Data name="ADRESSE"><value>N°50 CITE DES JARDINS DELLYS,   </value></Data><Data name="VILLE"><value>DELLYS</value></Data><Data name="WILAYA"><value>BOUMERDES                </value></Data></ExtendedData>
    <Point><coordinates>3.9368438999999995,36.87835990000001,0</coordinates></Point>
  </Placemark>
  <Placemark>
    <name>165</name>
    <ExtendedData><Data name="AGENCE"><value>BOUMERDES                                                        </value></Data><Data name="ADRESSE"><value>RN24-COMPLEXE LA SOUMMAM        </value></Data><Data name="VILLE"><value>BOUMERDES                      </value></Data><Data name="WILAYA"><value>BOUMERDES                </value></Data></ExtendedData>
    <Point><coordinates>3.7029002,36.76759620000001,0</coordinates></Point>
  </Placemark>
  <Placemark>
    <name>166</name>
    <ExtendedData><Data name="AGENCE"><value>ROUIBA                                                           </value></Data><Data name="ADRESSE"><value>BD KOUIDRI MENOUER ROUIBA ALGER </value></Data><Data name="VILLE"><value>ROUIBA</value></Data><Data name="WILAYA"><value>ALGER                    </value></Data></ExtendedData>
    <Point><coordinates>3.2885454999999992,36.72590909999999,0</coordinates></Point>
  </Placemark>
  <Placemark>
    <name>183</name>
    <ExtendedData><Data name="AGENCE"><value>DRAÂ EL MIZAN                                                    </value></Data><Data name="ADRESSE"><value>RUE COLONEL SI HOUES DRAA       </value></Data><Data name="VILLE"><value>DRAÂ EL MIZAN            </value></Data><Data name="WILAYA"><value>TIZI-OUZOU               </value></Data></ExtendedData>
    <Point><coordinates>3.8146526,36.5593675,0</coordinates></Point>
  </Placemark>
  <Placemark>
    <name>846</name>
    <ExtendedData><Data name="AGENCE"><value>DRE BOUMERDES</value></Data><Data name="ADRESSE"><value>Complèxe la Soummam RN N° 20 BOUMERDES</value></Data><Data name="VILLE"><value>BOUMERDES                      </value></Data><Data name="WILAYA"><value>BOUMERDES</value></Data></ExtendedData>
    <Point><coordinates>3.7029002,36.76759620000001,0</coordinates></Point>
  </Placemark>
  <Placemark>
    <name>323</name>
    <ExtendedData><Data name="AGENCE"><value>BARIKA                                                           </value></Data><Data name="ADRESSE"><value>RUE DEBBACHE ABDERRAZAK         </value></Data><Data name="VILLE"><value>BARIKA</value></Data><Data name="WILAYA"><value>BATNA                    </value></Data></ExtendedData>
    <Point><coordinates>5.2893433,35.3845934,0</coordinates></Point>
  </Placemark>
  <Placemark>
    <name>328</name>
    <ExtendedData><Data name="AGENCE"><value>BOUGAA                                                           </value></Data><Data name="ADRESSE"><value>RUE DERS MARTYRS-CENTRE VILLE   </value></Data><Data name="VILLE"><value>BOUGAÂ                          </value></Data><Data name="WILAYA"><value>SETIF</value></Data></ExtendedData>
    <Point><coordinates>5.111940700000001,36.3381987,0</coordinates></Point>
  </Placemark>
  <Placemark>
    <name>329</name>
    <ExtendedData><Data name="AGENCE"><value>BORDJ BOU ARRERIDJ                                               </value></Data><Data name="ADRESSE"><value>RUE MOHAMED CHERIFI N° 96       </value></Data><Data name="VILLE"><value>BORDJ BOU ARRERIDJ              </value></Data><Data name="WILAYA"><value>BORDJ BOU ARRERIDJ       </value></Data></ExtendedData>
    <Point><coordinates>4.8105955,36.0799765,0</coordinates></Point>
  </Placemark>
  <Placemark>
    <name>330</name>
    <ExtendedData><Data name="AGENCE"><value>SÉTIF EL FOUARA                                                  </value></Data><Data name="ADRESSE"><value>1, AVENUE DE LA RÉPUBLIQUE SETIF     </value></Data><Data name="VILLE"><value>SETIF                           </value></Data><Data name="WILAYA"><value>SETIF</value></Data></ExtendedData>
    <Point><coordinates>5.4049596,36.1893743,0</coordinates></Point>
  </Placemark>
  <Placemark>
    <name>335</name>
    <ExtendedData><Data name="AGENCE"><value>N'GAOUS                                                          </value></Data><Data name="ADRESSE"><value>ROUTE EL GASBAT-N'GAOUS         </value></Data><Data name="VILLE"><value>N'GAOUS</value></Data><Data name="WILAYA"><value>BATNA                    </value></Data></ExtendedData>
    <Point><coordinates>5.593238999999999,35.556612799999996,0</coordinates></Point>
  </Placemark>
  <Placemark>
    <name>364</name>
    <ExtendedData><Data name="AGENCE"><value>M'SILA                                                           </value></Data><Data name="ADRESSE"><value>51, RUE MOHAMED KHEMISTI        </value></Data><Data name="VILLE"><value>M'SILA</value></Data><Data name="WILAYA"><value>M'SILA                   </value></Data></ExtendedData>
    <Point><coordinates>4.2333355,35.316632999999996,0</coordinates></Point>
  </Placemark>
  <Placemark>
    <name>368</name>
    <ExtendedData><Data name="AGENCE"><value>EL EULMA                                                         </value></Data><Data name="ADRESSE"><value>RUE DU 1ER NOVEMBRE 1954 EL EULMA</value></Data><Data name="VILLE"><value>EL EULMA</value></Data><Data name="WILAYA"><value>SETIF</value></Data></ExtendedData>
    <Point><coordinates>5.6983979,36.1603006,0</coordinates></Point>
  </Placemark>
  <Placemark>
    <name>369</name>
    <ExtendedData><Data name="AGENCE"><value>RAS EL OUED                                                      </value></Data><Data name="ADRESSE"><value>280,CITÉ DES 300 LOGEMENTS - RAS</value></Data><Data name="VILLE"><value>RAS EL OUED              </value></Data><Data name="WILAYA"><value>BORDJ BOU ARRERIDJ       </value></Data></ExtendedData>
    <Point><coordinates>5.0356951,35.947030999999996,0</coordinates></Point>
  </Placemark>
  <Placemark>
    <name>374</name>
    <ExtendedData><Data name="AGENCE"><value>SETIF 1ER NOV                                                    </value></Data><Data name="ADRESSE"><value>AVENUE 1ER NOVEMBRE 1954  -SETIF</value></Data><Data name="VILLE"><value>SETIF                           </value></Data><Data name="WILAYA"><value>SETIF</value></Data></ExtendedData>
    <Point><coordinates>5.432578599999999,36.19632240000001,0</coordinates></Point>
  </Placemark>
  <Placemark>
    <name>847</name>
    <ExtendedData><Data name="AGENCE"><value>DRE SETIF</value></Data><Data name="ADRESSE"><value>AVENUE 1 ER NOVEMBRE 1954 SETIF</value></Data><Data name="VILLE"><value>SETIF                           </value></Data><Data name="WILAYA"><value>SETIF</value></Data></ExtendedData>
    <Point><coordinates>5.4268488999999995,36.1791598,0</coordinates></Point>
  </Placemark>
  <Placemark>
    <name>113</name>
    <ExtendedData><Data name="AGENCE"><value>Delly Brahim</value></Data><Data name="ADRESSE"><value>Sise 03, Boulevard Ahmed Ouaked, Dely Brahim, wilaya d'Alger</value></Data><Data name="VILLE"><value>Dely Brahim</value></Data><Data name="WILAYA"><value>Alger</value></Data></ExtendedData>
    <Point><coordinates>2.9800557999999455,36.7528506,0</coordinates></Point>
  </Placemark>
  <Placemark>
    <name>476</name>
    <ExtendedData><Data name="AGENCE"><value>Frenda</value></Data><Data name="ADRESSE"><value>Boulevard des Martyres, wilaya de Tiaret</value></Data><Data name="VILLE"><value>Tiaret</value></Data><Data name="WILAYA"><value>Tiaret</value></Data></ExtendedData>
    <Point><coordinates>1.0538252000000057,35.0617882,0</coordinates></Point>
  </Placemark>
  <Placemark>
    <name>192</name>
    <ExtendedData><Data name="AGENCE"><value>Ain Romana</value></Data><Data name="ADRESSE"><value>N°22 Commune Romana, Daira de Mouzaia</value></Data><Data name="VILLE"><value>Ain Romana</value></Data><Data name="WILAYA"><value>Blida</value></Data></ExtendedData>
    <Point><coordinates>2.6377224,36.3963569,0</coordinates></Point>
  </Placemark>
  <Placemark>
    <name>122</name>
    <ExtendedData><Data name="AGENCE"><value>Boussmail</value></Data><Data name="ADRESSE"><value>Boulevard 1 novembre, Bousmail Tipaza</value></Data><Data name="VILLE"><value>Bousmail</value></Data><Data name="WILAYA"><value>Tipaza</value></Data></ExtendedData>
    <Point><coordinates>2.7033575000000383,36.6381992,0</coordinates></Point>
  </Placemark>
  <Placemark>
    <name>102</name>
    <ExtendedData><Data name="AGENCE"><value>Aéroport d'Alger</value></Data><Data name="ADRESSE"><value>AREOPORT HOUARI BOUMEDIENE DAR EL BAIDA ALGER </value></Data><Data name="VILLE"><value>Alger</value></Data><Data name="WILAYA"><value>Alger</value></Data></ExtendedData>
    <Point><coordinates>3.2071091,36.7040773,0</coordinates></Point>
  </Placemark>
  <Placemark>
    <name>108</name>
    <ExtendedData><Data name="AGENCE"><value>Beraki</value></Data><Data name="ADRESSE"><value>N° 175 COMMUNE DE BERAKI Alger </value></Data><Data name="VILLE"><value>Beraki</value></Data><Data name="WILAYA"><value>Alger</value></Data></ExtendedData>
    <Point><coordinates>3.1025581,36.6685704,0</coordinates></Point>
  </Placemark>
  <Placemark>
    <name>114</name>
    <ExtendedData><Data name="AGENCE"><value>Sidi yahia</value></Data><Data name="ADRESSE"><value>13 CHEMIN SIDI YAHIA, HYDRA, ALGER</value></Data><Data name="VILLE"><value>Hydra</value></Data><Data name="WILAYA"><value>Alger</value></Data></ExtendedData>
    <Point><coordinates>3.0413461,36.7391914,0</coordinates></Point>
  </Placemark>
  <Placemark>
    <name>416</name>
    <ExtendedData><Data name="AGENCE"><value>Bir El Djir</value></Data><Data name="ADRESSE"><value>CITE KHEMISTI N°227 BIR EL DJIR ORAN</value></Data><Data name="VILLE"><value>Oran</value></Data><Data name="WILAYA"><value>Oran</value></Data></ExtendedData>
    <Point><coordinates>-0.5653648,35.7176707,0</coordinates></Point>
  </Placemark>
  <Placemark>
    <name>480</name>
    <ExtendedData><Data name="AGENCE"><value>Mekerra</value></Data><Data name="ADRESSE"><value>03 Rue Labrouyare Sidi Bel Abbes </value></Data><Data name="VILLE"><value>Sidi Bel Abbes</value></Data><Data name="WILAYA"><value>Sidi Bel Abbes</value></Data></ExtendedData>
    <Point><coordinates>-0.1938839,35.6147144,0</coordinates></Point>
  </Placemark>
  <Placemark>
    <name>414</name>
    <ExtendedData><Data name="AGENCE"><value>Oran El Wiam</value></Data><Data name="ADRESSE"><value>N°17,RUE DE LA PAIX  ORAN</value></Data><Data name="VILLE"><value>Oran</value></Data><Data name="WILAYA"><value>Oran</value></Data></ExtendedData>
    <Point><coordinates>-0.6266562,35.690712,0</coordinates></Point>
  </Placemark>
  <Placemark>
    <name>477</name>
    <ExtendedData><Data name="AGENCE"><value>El Mohamadia</value></Data><Data name="ADRESSE"><value>RUE LARBI BEN M'HIDI-MOHAMMADIA</value></Data><Data name="VILLE"><value>Oran</value></Data><Data name="WILAYA"><value>Oran</value></Data></ExtendedData>
    <Point><coordinates>3.1571563,36.7295732,0</coordinates></Point>
  </Placemark>
  <Placemark>
    <name>361</name>
    <ExtendedData><Data name="AGENCE"><value>Ali Mendjli</value></Data><Data name="ADRESSE"><value>NOUVELLE VILLE ALI MENDJELI-EL KHROUB-CONSTANTINE </value></Data><Data name="VILLE"><value>CONSTANTINE </value></Data><Data name="WILAYA"><value>CONSTANTINE </value></Data></ExtendedData>
    <Point><coordinates>6.583138399999999,36.2570374,0</coordinates></Point>
  </Placemark>
  <Placemark>
    <name>206</name>
    <ExtendedData><Data name="AGENCE"><value>Drean</value></Data><Data name="ADRESSE"><value>cité 856 Bt N°16 Drean El-Tarf</value></Data><Data name="VILLE"><value>El-Tarf</value></Data><Data name="WILAYA"><value>El-Tarf</value></Data></ExtendedData>
    <Point><coordinates>7.720806199999999,36.6865627,0</coordinates></Point>
  </Placemark>
  <Placemark>
    <name>478</name>
    <ExtendedData><Data name="AGENCE"><value>Attaf</value></Data><Data name="ADRESSE"><value>BOULEVARD MOHAMED KHEMISTI - EL ATTAF X DE AIN DEFLA </value></Data><Data name="VILLE"><value>AIN DEFLA</value></Data><Data name="WILAYA"><value>AIN DEFLA</value></Data></ExtendedData>
    <Point><coordinates>1.6737113,36.2258291,0</coordinates></Point>
  </Placemark>
  <Placemark>
    <name>435</name>
    <ExtendedData><Data name="AGENCE"><value>AHMAD BARKANI TLEMCEN</value></Data><Data name="ADRESSE"><value>N°09 RUE COMMANDANT DJABER - TLEMCEN</value></Data><Data name="VILLE"><value>TLEMCEN</value></Data><Data name="WILAYA"><value>TLEMCEN</value></Data></ExtendedData>
    <Point><coordinates>-1.3166815,34.8828864,0</coordinates></Point>
  </Placemark>
  <Placemark>
    <name>421</name>
    <ExtendedData><Data name="AGENCE"><value>SAIDA</value></Data><Data name="ADRESSE"><value>N°14 AVENUE AHMED MEDEGHRI-SAIDA</value></Data><Data name="VILLE"><value>SAIDA</value></Data><Data name="WILAYA"><value>SAIDA</value></Data></ExtendedData>
    <Point><coordinates>0.1456055,34.8415207,0</coordinates></Point>
  </Placemark>
  <Placemark>
    <name>460</name>
    <ExtendedData><Data name="AGENCE"><value>El bayadh</value></Data><Data name="ADRESSE"><value>N°2 RUE GHENTAF MOHAMED-EL BAYADH </value></Data><Data name="VILLE"><value>El bayadh</value></Data><Data name="WILAYA"><value>El bayadh</value></Data></ExtendedData>
    <Point><coordinates>1.0303543,33.6854149,0</coordinates></Point>
  </Placemark>
  <Placemark>
    <name>462</name>
    <ExtendedData><Data name="AGENCE"><value>Naâma</value></Data><Data name="ADRESSE"><value>Rue DU MARTYRE AIDAOUI MAAMAR- NAAMA</value></Data><Data name="VILLE"><value>NAAMA</value></Data><Data name="WILAYA"><value>NAAMA</value></Data></ExtendedData>
    <Point><coordinates>-0.3128659,33.2667317,0</coordinates></Point>
  </Placemark>
  <Placemark>
    <name>445</name>
    <ExtendedData><Data name="AGENCE"><value>Ain sefra</value></Data><Data name="ADRESSE"><value>SIS N° 180 BOULVARD 1er novembre Ain Sefra Naama</value></Data><Data name="VILLE"><value>NAAMA</value></Data><Data name="WILAYA"><value>NAAMA</value></Data></ExtendedData>
    <Point><coordinates>-0.5782621,32.7591169,0</coordinates></Point>
  </Placemark>
  <Placemark>
    <name>176</name>
    <ExtendedData><Data name="AGENCE"><value>Lakhdaria</value></Data><Data name="ADRESSE"><value>CITE DES 39 LOGTS ROUTE N 05 ROUTE DE LA KHDAIRA - BOUIRA</value></Data><Data name="VILLE"><value>BOUIRA</value></Data><Data name="WILAYA"><value>BOUIRA</value></Data></ExtendedData>
    <Point><coordinates>3.5960213,36.5660649,0</coordinates></Point>
  </Placemark>
  <Placemark>
    <name>177</name>
    <ExtendedData><Data name="AGENCE"><value>Sour el ghozlane</value></Data><Data name="ADRESSE"><value>RUE ZEGUICHE MOHAMED SOUR EL GHOZLANE-BOUIRA</value></Data><Data name="VILLE"><value>BOUIRA</value></Data><Data name="WILAYA"><value>BOUIRA</value></Data></ExtendedData>
    <Point><coordinates>3.7074189,36.1508804,0</coordinates></Point>
  </Placemark>
  <Placemark>
    <name>148</name>
    <ExtendedData><Data name="AGENCE"><value>Reghaia</value></Data><Data name="ADRESSE"><value>COOP.IMMOB HOUARI BOUMEDIENNE-ALGER</value></Data><Data name="VILLE"><value>Boumerdes</value></Data><Data name="WILAYA"><value>Boumerdes</value></Data></ExtendedData>
    <Point><coordinates>3.34255,36.7386643,0</coordinates></Point>
  </Placemark>
  <Placemark>
    <name>324</name>
    <ExtendedData><Data name="AGENCE"><value>SIDI AISSA</value></Data><Data name="ADRESSE"><value>Cité 05 Juillet 1962, SIDI AISSA</value></Data><Data name="VILLE"><value>SIDI AISSA</value></Data><Data name="WILAYA"><value>M'SILA</value></Data></ExtendedData>
    <Point><coordinates>3.774373,35.885157,0</coordinates></Point>
  </Placemark>
  <Placemark>
    <name>188</name>
    <ExtendedData><Data name="AGENCE"><value>Ouargla</value></Data><Data name="ADRESSE"><value>RUE EMIR ABDELKADER PLACE DE LA POSTE OUARGLA</value></Data><Data name="VILLE"><value>Ouargla</value></Data><Data name="WILAYA"><value>Ouargla</value></Data></ExtendedData>
    <Point><coordinates>5.3335348,31.9527411,0</coordinates></Point>
  </Placemark>
  <Placemark>
    <name>124</name>
    <ExtendedData><Data name="AGENCE"><value>Dar El beida</value></Data><Data name="ADRESSE"><value>CITE ABDOUNI BOUALEM ILOT N°24 DAR EL BAIDA ALGER</value></Data><Data name="VILLE"><value>Alger Est</value></Data><Data name="WILAYA"><value>Alger </value></Data></ExtendedData>
    <Point><coordinates>3.2115916,36.7134305,0</coordinates></Point>
  </Placemark>
  <Placemark>
    <name>123</name>
    <ExtendedData><Data name="AGENCE"><value>Ain Benian</value></Data><Data name="ADRESSE"><value>LOTISSEMENT LIMOUNI N°103 AIN BENIAN - ALGER</value></Data><Data name="VILLE"><value>Ain Benian</value></Data><Data name="WILAYA"><value>Alger</value></Data></ExtendedData>
    <Point><coordinates>2.9181427,36.800402,0</coordinates></Point>
  </Placemark>
  <Placemark>
    <name>320</name>
    <ExtendedData><Data name="AGENCE"><value>El khroub</value></Data><Data name="ADRESSE"><value>CITE 2013 LGTS BT 56 N° 1 et 2 EL KHROUB CONSTANTINE</value></Data><Data name="VILLE"><value>El khroub</value></Data><Data name="WILAYA"><value>Constantine</value></Data></ExtendedData>
    <Point><coordinates>6.692789599999999,36.2597923,0</coordinates></Point>
  </Placemark>
  <Placemark>
    <name>130</name>
    <ExtendedData><Data name="AGENCE"><value>Ouacif</value></Data><Data name="ADRESSE"><value>6 LOCAUX 1, 2, 3, 4, 5, 6 CITE DES 50 LOCAUX PROFESSIONNELS OUACIF TIZI-OUZOU </value></Data><Data name="VILLE"><value>Ouacif</value></Data><Data name="WILAYA"><value>Tizi-Ouzou</value></Data></ExtendedData>
    <Point><coordinates>4.204923,36.52424020000001,0</coordinates></Point>
  </Placemark>
  <Placemark>
    <name>180</name>
    <ExtendedData><Data name="AGENCE"><value>Tadmait</value></Data><Data name="ADRESSE"><value>CITE DES 48 LOGEMENTS WILAYA DE TIZI-OUZOU</value></Data><Data name="VILLE"><value>Tizi-Ouzou</value></Data><Data name="WILAYA"><value>Tizi-Ouzou</value></Data></ExtendedData>
    <Point><coordinates>3.9010427,36.7432504,0</coordinates></Point>
  </Placemark>
  <Placemark>
    <name>403</name>
    <ExtendedData><Data name="AGENCE"><value>Hammam Bou Hadjar</value></Data><Data name="ADRESSE"><value>12 RUE MAATA MOHAMED, HAMMAM BOU HADJAR AIN TIMOUCHENT</value></Data><Data name="VILLE"><value>Tlemcen</value></Data><Data name="WILAYA"><value>Tlemcen</value></Data></ExtendedData>
    <Point><coordinates>-0.9709936999999998,35.3789975,0</coordinates></Point>
  </Placemark>
  <Placemark>
    <name>128</name>
    <ExtendedData><Data name="AGENCE"><value>Ain Bessam</value></Data><Data name="ADRESSE"><value>RUE BOUALEM AL-ALOUI, AIN BASSAM WILAYA DE BOUIRA</value></Data><Data name="VILLE"><value>Ain Bessam</value></Data><Data name="WILAYA"><value>Bouira</value></Data></ExtendedData>
    <Point><coordinates>3.6692654,36.2958914,0</coordinates></Point>
  </Placemark>
  <Placemark>
    <name>191</name>
    <ExtendedData><Data name="AGENCE"><value>Hassi Bahbah </value></Data><Data name="ADRESSE"><value>CITE KHELIFA SI ECHERIF, BATISSE 192 N° 140, HASSI BAHBAH DJELFA</value></Data><Data name="VILLE"><value>Hassi Bahbah</value></Data><Data name="WILAYA"><value>Djelfa</value></Data></ExtendedData>
    <Point><coordinates>3.0267229,35.0762544,0</coordinates></Point>
  </Placemark>
  <Placemark>
    <name>131</name>
    <ExtendedData><Data name="AGENCE"><value>Amizour</value></Data><Data name="ADRESSE"><value>RUE AREZKI LAURES AMIZOUR WILAYA DE BEJAIA</value></Data><Data name="VILLE"><value>Amizour</value></Data><Data name="WILAYA"><value>Bejaia</value></Data></ExtendedData>
    <Point><coordinates>4.903658399999999,36.643932,0</coordinates></Point>
  </Placemark>
  <Placemark>
    <name>338</name>
    <ExtendedData><Data name="AGENCE"><value>Saldae</value></Data><Data name="ADRESSE"><value>06 RUE DE LA LIBERTE BEJAIA</value></Data><Data name="VILLE"><value>Saldae</value></Data><Data name="WILAYA"><value>Bejaia</value></Data></ExtendedData>
    <Point><coordinates>5.0557713,36.7514502,0</coordinates></Point>
  </Placemark>
  <Placemark>
    <name>365</name>
    <ExtendedData><Data name="AGENCE"><value>El milia </value></Data><Data name="ADRESSE"><value>CITE 100 LOGEMENTS, EL MELIA JIJEL </value></Data><Data name="VILLE"><value>El milia</value></Data><Data name="WILAYA"><value>Jijel</value></Data></ExtendedData>
    <Point><coordinates>6.2676726,36.7531205,0</coordinates></Point>
  </Placemark>
  <Placemark>
    <name>103</name>
    <ExtendedData><Data name="AGENCE"><value>Boudouaou</value></Data><Data name="ADRESSE"><value>RUE 1 ER NOVEMBRE BOUDOUAOU BOUMERDES </value></Data><Data name="VILLE"><value>Boudouaou</value></Data><Data name="WILAYA"><value>Boumerdes</value></Data></ExtendedData>
    <Point><coordinates>3.4068792,36.7280966,0</coordinates></Point>
  </Placemark>
  <Placemark>
    <name>375</name>
    <ExtendedData><Data name="AGENCE"><value>Ain Oulmane</value></Data><Data name="ADRESSE"><value>QUARTIER BAÏRA, RUE KANOUNI OTHMAN, SECTION 63, PROPRIÉTÉ MUNICIPALE D'AÏN OULMANE SETIF</value></Data><Data name="VILLE"><value>Ain Oulmane</value></Data><Data name="WILAYA"><value>Sétif</value></Data></ExtendedData>
    <Point><coordinates>5.2955727,35.9217649,0</coordinates></Point>
  </Placemark>
</Document></kml>
